{
  "features": [
    {
      "geometry": {
        "coordinates": [
          [
            [
              -122.41682323684428,
              37.76882308826447
            ],
            [
              -122.41234965984782,
              37.77236651869776
            ],
            [
              -122.41379734925398,
              37.77705850389022
            ],
            [
              -122.41971895414808,
              37.77820687262237
            ],
            [
              -122.42419231791125,
              37.774663325175815
            ],
            [
              -122.42274429006204,
              37.769971526020306
            ],
            [
              -122.41682323684428,
              37.76882308826447
            ]
          ]
        ],
        "type": "Polygon"
      },
      "properties": {
        "action": "{'action': 2, 'action_name': 'south', 'efe': 32.73246240045623, 'efe_all': [116.89041507629443, 105.16590714640158, 32.73246240045623, 102.60292731696052, 116.89041507629443], 'policy_distribution': [2.8227053101890315e-37, 3.487824606204991e-32, 0.9999999900000002, 4.525250597634429e-31, 2.8227053101890315e-37], 'confidence': 0.9999999900000002, 'step': 8}",
        "belief_entropy": 0.31079443616493774,
        "expected_free_energy": 32.73246240045623,
        "free_energy": 21.41543233672659,
        "h3_cell": "8828308281fffff",
        "lat": 37.773515097238146,
        "lng": -122.41827103692466,
        "resolution": 8
      },
      "type": "Feature"
    },
    {
      "geometry": {
        "coordinates": [
          [
            [
              -122.42419231791125,
              37.774663325175815
            ],
            [
              -122.41971895414808,
              37.77820687262237
            ],
            [
              -122.42116698852695,
              37.78289841436257
            ],
            [
              -122.42708872508095,
              37.78404622259878
            ],
            [
              -122.43156187542583,
              37.780502558191785
            ],
            [
              -122.43011350268341,
              37.775811202518966
            ],
            [
              -122.42419231791125,
              37.774663325175815
            ]
          ]
        ],
        "type": "Polygon"
      },
      "properties": {
        "action": "{'action': 2, 'action_name': 'south', 'efe': 32.73246240045623, 'efe_all': [116.89041507629443, 105.16590714640158, 32.73246240045623, 102.60292731696052, 116.89041507629443], 'policy_distribution': [2.8227053101890315e-37, 3.487824606204991e-32, 0.9999999900000002, 4.525250597634429e-31, 2.8227053101890315e-37], 'confidence': 0.9999999900000002, 'step': 8}",
        "belief_entropy": 0.34008596374590927,
        "expected_free_energy": 32.73246240045623,
        "free_energy": 21.41543233672659,
        "h3_cell": "8828308283fffff",
        "lat": 37.77935489072015,
        "lng": -122.42564046291344,
        "resolution": 8
      },
      "type": "Feature"
    },
    {
      "geometry": {
        "coordinates": [
          [
            [
              -122.40642818680489,
              37.77121758954652
            ],
            [
              -122.4019538515761,
              37.774760714490206
            ],
            [
              -122.40340120235787,
              37.779452885625275
            ],
            [
              -122.40932322704121,
              37.780601745884
            ],
            [
              -122.41379734925398,
              37.77705850389022
            ],
            [
              -122.41234965984782,
              37.77236651869776
            ],
            [
              -122.40642818680489,
              37.77121758954652
            ]
          ]
        ],
        "type": "Polygon"
      },
      "properties": {
        "action": "{'action': 2, 'action_name': 'south', 'efe': 32.73246240045623, 'efe_all': [116.89041507629443, 105.16590714640158, 32.73246240045623, 102.60292731696052, 116.89041507629443], 'policy_distribution': [2.8227053101890315e-37, 3.487824606204991e-32, 0.9999999900000002, 4.525250597634429e-31, 2.8227053101890315e-37], 'confidence': 0.9999999900000002, 'step': 8}",
        "belief_entropy": 0.5826328788604864,
        "expected_free_energy": 32.73246240045623,
        "free_energy": 21.41543233672659,
        "h3_cell": "8828308285fffff",
        "lat": 37.775909784515555,
        "lng": -122.40787564835524,
        "resolution": 8
      },
      "type": "Feature"
    },
    {
      "geometry": {
        "coordinates": [
          [
            [
              -122.41379734925398,
              37.77705850389022
            ],
            [
              -122.40932322704121,
              37.780601745884
            ],
            [
              -122.41077092287513,
              37.785293473597285
            ],
            [
              -122.41669307951518,
              37.786441773353644
            ],
            [
              -122.42116698852695,
              37.78289841436257
            ],
            [
              -122.41971895414808,
              37.77820687262237
            ],
            [
              -122.41379734925398,
              37.77705850389022
            ]
          ]
        ],
        "type": "Polygon"
      },
      "properties": {
        "action": "{'action': 2, 'action_name': 'south', 'efe': 32.73246240045623, 'efe_all': [116.89041507629443, 105.16590714640158, 32.73246240045623, 102.60292731696052, 116.89041507629443], 'policy_distribution': [2.8227053101890315e-37, 3.487824606204991e-32, 0.9999999900000002, 4.525250597634429e-31, 2.8227053101890315e-37], 'confidence': 0.9999999900000002, 'step': 8}",
        "belief_entropy": 0.6154620759247713,
        "expected_free_energy": 32.73246240045623,
        "free_energy": 21.41543233672659,
        "h3_cell": "8828308287fffff",
        "lat": 37.78175025546036,
        "lng": -122.41524515580565,
        "resolution": 8
      },
      "type": "Feature"
    },
    {
      "geometry": {
        "coordinates": [
          [
            [
              -122.40340120235787,
              37.779452885625275
            ],
            [
              -122.39892632184691,
              37.78299582193439
            ],
            [
              -122.40037367895451,
              37.78768773552642
            ],
            [
              -122.40629625534781,
              37.788836526940536
            ],
            [
              -122.41077092287513,
              37.785293473597285
            ],
            [
              -122.40932322704121,
              37.780601745884
            ],
            [
              -122.40340120235787,
              37.779452885625275
            ]
          ]
        ],
        "type": "Polygon"
      },
      "properties": {
        "action": "{'action': 2, 'action_name': 'south', 'efe': 32.73246240045623, 'efe_all': [116.89041507629443, 105.16590714640158, 32.73246240045623, 102.60292731696052, 116.89041507629443], 'policy_distribution': [2.8227053101890315e-37, 3.487824606204991e-32, 0.9999999900000002, 4.525250597634429e-31, 2.8227053101890315e-37], 'confidence': 0.9999999900000002, 'step': 8}",
        "belief_entropy": 0.7504047858673405,
        "expected_free_energy": 32.73246240045623,
        "free_energy": 21.41543233672659,
        "h3_cell": "88283082abfffff",
        "lat": 37.78414482312691,
        "lng": -122.40484867027766,
        "resolution": 8
      },
      "type": "Feature"
    },
    {
      "geometry": {
        "coordinates": [
          [
            [
              -122.42116698852695,
              37.78289841436257
            ],
            [
              -122.41669307951518,
              37.786441773353644
            ],
            [
              -122.41814112039498,
              37.79113305751552
            ],
            [
              -122.42406340880044,
              37.79228079669275
            ],
            [
              -122.4285371044262,
              37.78873732075715
            ],
            [
              -122.42708872508095,
              37.78404622259878
            ],
            [
              -122.42116698852695,
              37.78289841436257
            ]
          ]
        ],
        "type": "Polygon"
      },
      "properties": {
        "action": "{'action': 2, 'action_name': 'south', 'efe': 32.73246240045623, 'efe_all': [116.89041507629443, 105.16590714640158, 32.73246240045623, 102.60292731696052, 116.89041507629443], 'policy_distribution': [2.8227053101890315e-37, 3.487824606204991e-32, 0.9999999900000002, 4.525250597634429e-31, 2.8227053101890315e-37], 'confidence': 0.9999999900000002, 'step': 8}",
        "belief_entropy": 0.6761124507437402,
        "expected_free_energy": 32.73246240045623,
        "free_energy": 21.41543233672659,
        "h3_cell": "88283082b9fffff",
        "lat": 37.78758972240421,
        "lng": -122.42261514007362,
        "resolution": 8
      },
      "type": "Feature"
    },
    {
      "geometry": {
        "coordinates": [
          [
            [
              -122.41077092287513,
              37.785293473597285
            ],
            [
              -122.40629625534781,
              37.788836526940536
            ],
            [
              -122.40774395758072,
              37.793527997011616
            ],
            [
              -122.4136666660363,
              37.79467622784018
            ],
            [
              -122.41814112039498,
              37.79113305751552
            ],
            [
              -122.41669307951518,
              37.786441773353644
            ],
            [
              -122.41077092287513,
              37.785293473597285
            ]
          ]
        ],
        "type": "Polygon"
      },
      "properties": {
        "action": "{'action': 2, 'action_name': 'south', 'efe': 32.73246240045623, 'efe_all': [116.89041507629443, 105.16590714640158, 32.73246240045623, 102.60292731696052, 116.89041507629443], 'policy_distribution': [2.8227053101890315e-37, 3.487824606204991e-32, 0.9999999900000002, 4.525250597634429e-31, 2.8227053101890315e-37], 'confidence': 0.9999999900000002, 'step': 8}",
        "belief_entropy": 0.7567501741255116,
        "expected_free_energy": 32.73246240045623,
        "free_energy": 21.41543233672659,
        "h3_cell": "88283082bdfffff",
        "lat": 37.789984967600844,
        "lng": -122.41221873586937,
        "resolution": 8
      },
      "type": "Feature"
    }
  ],
  "type": "FeatureCollection"
}