{
"type": "FeatureCollection",
"name": "synthetic_zoning_data",
"crs": { "type": "name", "properties": { "name": "urn:ogc:def:crs:OGC:1.3:CRS84" } },
"features": [
{ "type": "Feature", "properties": { "zone_type": "Commercial", "zone_code": "Z1066", "area_acres": 0.01866491455407155, "description": "Synthetic Commercial zone" }, "geometry": { "type": "Polygon", "coordinates": [ [ [ -124.231741265663914, 41.798321881264691 ], [ -124.229800450462122, 41.793631043596342 ], [ -124.225440881215505, 41.788872984759848 ], [ -124.231741265663914, 41.785538392723126 ], [ -124.238245637736, 41.788755212450411 ], [ -124.234473147785906, 41.794087766295668 ], [ -124.231741265663914, 41.798321881264691 ] ] ] } },
{ "type": "Feature", "properties": { "zone_type": "Conservation", "zone_code": "Z4234", "area_acres": 0.017030209595334619, "description": "Synthetic Conservation zone" }, "geometry": { "type": "Polygon", "coordinates": [ [ [ -124.166575428506661, 41.80939244442267 ], [ -124.164107680523344, 41.804249740163051 ], [ -124.158684179261016, 41.798268970324365 ], [ -124.166575428506661, 41.798148649790576 ], [ -124.172129161753261, 41.799618535815661 ], [ -124.1693697708467, 41.80443829950282 ], [ -124.166575428506661, 41.80939244442267 ] ] ] } },
{ "type": "Feature", "properties": { "zone_type": "Agricultural", "zone_code": "Z2615", "area_acres": 0.016082799909744011, "description": "Synthetic Agricultural zone" }, "geometry": { "type": "Polygon", "coordinates": [ [ [ -124.154633823517329, 41.721719500851925 ], [ -124.15072436121514, 41.720903249508922 ], [ -124.150889576735466, 41.716484378508945 ], [ -124.154633823517329, 41.715104181160065 ], [ -124.161722716873612, 41.714553345908861 ], [ -124.160218873106231, 41.721870650279953 ], [ -124.154633823517329, 41.721719500851925 ] ] ] } },
{ "type": "Feature", "properties": { "zone_type": "Residential", "zone_code": "Z4041", "area_acres": 0.014239636698487946, "description": "Synthetic Residential zone" }, "geometry": { "type": "Polygon", "coordinates": [ [ [ -124.221066135895356, 41.727749263248981 ], [ -124.215919571145292, 41.725740205236221 ], [ -124.216969910617223, 41.720403877925385 ], [ -124.221066135895356, 41.719998010404602 ], [ -124.224034568631808, 41.721055009252915 ], [ -124.226501607621714, 41.725907005756753 ], [ -124.221066135895356, 41.727749263248981 ] ] ] } },
{ "type": "Feature", "properties": { "zone_type": "Agricultural", "zone_code": "Z7010", "area_acres": 0.013217216989199723, "description": "Synthetic Agricultural zone" }, "geometry": { "type": "Polygon", "coordinates": [ [ [ -124.255556985637995, 41.836073509151362 ], [ -124.253375008593835, 41.828360720944005 ], [ -124.253208137206343, 41.825744847635896 ], [ -124.255556985637995, 41.821247852522234 ], [ -124.260528179309091, 41.824230835905986 ], [ -124.258182976551325, 41.828617072470891 ], [ -124.255556985637995, 41.836073509151362 ] ] ] } },
{ "type": "Feature", "properties": { "zone_type": "Commercial", "zone_code": "Z3288", "area_acres": 0.015474986678415424, "description": "Synthetic Commercial zone" }, "geometry": { "type": "Polygon", "coordinates": [ [ [ -124.230979325606256, 41.788008100953761 ], [ -124.226890086333555, 41.788357116388163 ], [ -124.225483734481415, 41.782823311978007 ], [ -124.230979325606256, 41.780615308518144 ], [ -124.235124327987663, 41.783603074752591 ], [ -124.23674543720584, 41.789325259077479 ], [ -124.230979325606256, 41.788008100953761 ] ] ] } },
{ "type": "Feature", "properties": { "zone_type": "Conservation", "zone_code": "Z8099", "area_acres": 0.023336025274511136, "description": "Synthetic Conservation zone" }, "geometry": { "type": "Polygon", "coordinates": [ [ [ -124.128352056486591, 41.685194730999314 ], [ -124.121115808408959, 41.685292207307768 ], [ -124.122506554342593, 41.677739455295836 ], [ -124.128352056486591, 41.676147810923709 ], [ -124.136851686979583, 41.676207093579087 ], [ -124.131177535695571, 41.682745648714111 ], [ -124.128352056486591, 41.685194730999314 ] ] ] } },
{ "type": "Feature", "properties": { "zone_type": "Industrial", "zone_code": "Z5292", "area_acres": 0.034055072489902659, "description": "Synthetic Industrial zone" }, "geometry": { "type": "Polygon", "coordinates": [ [ [ -124.184388093962369, 41.823803533951093 ], [ -124.176967180158996, 41.820077695103265 ], [ -124.175927662448217, 41.810908596109101 ], [ -124.184388093962369, 41.813608682979002 ], [ -124.191410140842152, 41.811739047864954 ], [ -124.191204387606732, 41.819728617491705 ], [ -124.184388093962369, 41.823803533951093 ] ] ] } },
{ "type": "Feature", "properties": { "zone_type": "Agricultural", "zone_code": "Z6415", "area_acres": 0.021893716516568521, "description": "Synthetic Agricultural zone" }, "geometry": { "type": "Polygon", "coordinates": [ [ [ -124.236332191786445, 41.688791022952032 ], [ -124.228901194031494, 41.68986562890975 ], [ -124.232651397555003, 41.683450232815225 ], [ -124.236332191786445, 41.676865844083309 ], [ -124.2399169704358, 41.683505667437394 ], [ -124.24427820856657, 41.690162975282576 ], [ -124.236332191786445, 41.688791022952032 ] ] ] } },
{ "type": "Feature", "properties": { "zone_type": "Agricultural", "zone_code": "Z7322", "area_acres": 0.015461813326376552, "description": "Synthetic Agricultural zone" }, "geometry": { "type": "Polygon", "coordinates": [ [ [ -124.25485197640117, 41.743738652301282 ], [ -124.251660005409832, 41.735845709191906 ], [ -124.249994458966142, 41.731198334882109 ], [ -124.25485197640117, 41.731492885037547 ], [ -124.260714281789959, 41.730618220286523 ], [ -124.257836362186694, 41.735725859817457 ], [ -124.25485197640117, 41.743738652301282 ] ] ] } },
{ "type": "Feature", "properties": { "zone_type": "Residential", "zone_code": "Z9821", "area_acres": 0.025512641522066688, "description": "Synthetic Residential zone" }, "geometry": { "type": "Polygon", "coordinates": [ [ [ -124.145427021554951, 41.769092943638071 ], [ -124.140952573223984, 41.766166316441051 ], [ -124.138454998413891, 41.759557693055406 ], [ -124.145427021554951, 41.757466859132364 ], [ -124.14912790068648, 41.761446288929868 ], [ -124.153659311213275, 41.768335907142976 ], [ -124.145427021554951, 41.769092943638071 ] ] ] } },
{ "type": "Feature", "properties": { "zone_type": "Agricultural", "zone_code": "Z6090", "area_acres": 0.026433140369373241, "description": "Synthetic Agricultural zone" }, "geometry": { "type": "Polygon", "coordinates": [ [ [ -124.290541739693808, 41.799440253846043 ], [ -124.2831874707785, 41.794502312121601 ], [ -124.284884208262596, 41.786989945688902 ], [ -124.290541739693808, 41.783116620407547 ], [ -124.292887939594678, 41.788901743839318 ], [ -124.294007078682199, 41.792257037381439 ], [ -124.290541739693808, 41.799440253846043 ] ] ] } },
{ "type": "Feature", "properties": { "zone_type": "Residential", "zone_code": "Z3480", "area_acres": 0.029028654816280593, "description": "Synthetic Residential zone" }, "geometry": { "type": "Polygon", "coordinates": [ [ [ -124.236529838034073, 41.784253987449759 ], [ -124.230345447966201, 41.783073216557312 ], [ -124.229535651903603, 41.77546456204167 ], [ -124.236529838034073, 41.773954788996015 ], [ -124.243034376563088, 41.775747260216178 ], [ -124.243113560334081, 41.783303771129034 ], [ -124.236529838034073, 41.784253987449759 ] ] ] } },
{ "type": "Feature", "properties": { "zone_type": "Agricultural", "zone_code": "Z3660", "area_acres": 0.031709634434563684, "description": "Synthetic Agricultural zone" }, "geometry": { "type": "Polygon", "coordinates": [ [ [ -124.242577842584495, 41.839943277785657 ], [ -124.239423440972317, 41.832911558634898 ], [ -124.236561351047314, 41.827616741006409 ], [ -124.242577842584495, 41.823359371294366 ], [ -124.249509580368709, 41.827088323339311 ], [ -124.248907936104658, 41.834745045212834 ], [ -124.242577842584495, 41.839943277785657 ] ] ] } },
{ "type": "Feature", "properties": { "zone_type": "Residential", "zone_code": "Z8985", "area_acres": 0.024254638995782736, "description": "Synthetic Residential zone" }, "geometry": { "type": "Polygon", "coordinates": [ [ [ -124.198145951176656, 41.820217320900504 ], [ -124.19004561147122, 41.821492052862965 ], [ -124.191304921004757, 41.812865648942221 ], [ -124.198145951176656, 41.809664766999148 ], [ -124.203556394035346, 41.813691598912598 ], [ -124.199924382448245, 41.817842097326889 ], [ -124.198145951176656, 41.820217320900504 ] ] ] } },
{ "type": "Feature", "properties": { "zone_type": "Industrial", "zone_code": "Z5162", "area_acres": 0.022764171843428268, "description": "Synthetic Industrial zone" }, "geometry": { "type": "Polygon", "coordinates": [ [ [ -124.272224000098632, 41.679636566488675 ], [ -124.267225366198559, 41.677427916482692 ], [ -124.266655122808274, 41.671326761052228 ], [ -124.272224000098632, 41.667807215190727 ], [ -124.279542447806378, 41.670316646100787 ], [ -124.275165622138786, 41.676240300131639 ], [ -124.272224000098632, 41.679636566488675 ] ] ] } },
{ "type": "Feature", "properties": { "zone_type": "Commercial", "zone_code": "Z2323", "area_acres": 0.016607610002261877, "description": "Synthetic Commercial zone" }, "geometry": { "type": "Polygon", "coordinates": [ [ [ -124.110480593603256, 41.813441737580142 ], [ -124.1023878934962, 41.81029569878703 ], [ -124.108427628900742, 41.804438096478115 ], [ -124.110480593603256, 41.80186852819952 ], [ -124.114143990449065, 41.80350831304667 ], [ -124.113011822857473, 41.807084782093057 ], [ -124.110480593603256, 41.813441737580142 ] ] ] } },
{ "type": "Feature", "properties": { "zone_type": "Agricultural", "zone_code": "Z9407", "area_acres": 0.0061010842160680902, "description": "Synthetic Agricultural zone" }, "geometry": { "type": "Polygon", "coordinates": [ [ [ -124.209878442226469, 41.802550406725068 ], [ -124.207638988526369, 41.801287046885868 ], [ -124.205656540954735, 41.797556581853542 ], [ -124.209878442226469, 41.797474251575117 ], [ -124.213237453076246, 41.798054771870937 ], [ -124.211997433346525, 41.801217497782851 ], [ -124.209878442226469, 41.802550406725068 ] ] ] } },
{ "type": "Feature", "properties": { "zone_type": "Agricultural", "zone_code": "Z2807", "area_acres": 0.011164821218484305, "description": "Synthetic Agricultural zone" }, "geometry": { "type": "Polygon", "coordinates": [ [ [ -124.149865606585578, 41.840547721369653 ], [ -124.1433832076996, 41.841949197717504 ], [ -124.148003137062119, 41.837131285694973 ], [ -124.149865606585578, 41.833783801174647 ], [ -124.154752220340313, 41.835385295208972 ], [ -124.153798371372616, 41.840477165784151 ], [ -124.149865606585578, 41.840547721369653 ] ] ] } },
{ "type": "Feature", "properties": { "zone_type": "Industrial", "zone_code": "Z1075", "area_acres": 0.019044022786706308, "description": "Synthetic Industrial zone" }, "geometry": { "type": "Polygon", "coordinates": [ [ [ -124.171455204247934, 41.711721083536375 ], [ -124.168132113465219, 41.707255564597439 ], [ -124.16653957326173, 41.702498936366375 ], [ -124.171455204247934, 41.699172906384113 ], [ -124.175940179008961, 41.702747575853913 ], [ -124.176308134408487, 41.708138817774056 ], [ -124.171455204247934, 41.711721083536375 ] ] ] } },
{ "type": "Feature", "properties": { "zone_type": "Commercial", "zone_code": "Z9070", "area_acres": 0.027563460597280088, "description": "Synthetic Commercial zone" }, "geometry": { "type": "Polygon", "coordinates": [ [ [ -124.255400465662177, 41.701946430386982 ], [ -124.250520500660187, 41.697725646392442 ], [ -124.249234488803367, 41.691348268885655 ], [ -124.255400465662177, 41.688937576561791 ], [ -124.259764253994163, 41.692388762916742 ], [ -124.262946221525667, 41.699264741463928 ], [ -124.255400465662177, 41.701946430386982 ] ] ] } },
{ "type": "Feature", "properties": { "zone_type": "Commercial", "zone_code": "Z5840", "area_acres": 0.024737767929380323, "description": "Synthetic Commercial zone" }, "geometry": { "type": "Polygon", "coordinates": [ [ [ -124.204383567653068, 41.714359823387433 ], [ -124.199363017583337, 41.711331986880865 ], [ -124.199728452335179, 41.705745738864728 ], [ -124.204383567653068, 41.705531705839959 ], [ -124.211567163580497, 41.704285919904173 ], [ -124.212057090559625, 41.712863681462352 ], [ -124.204383567653068, 41.714359823387433 ] ] ] } },
{ "type": "Feature", "properties": { "zone_type": "Industrial", "zone_code": "Z8393", "area_acres": 0.021346070151670088, "description": "Synthetic Industrial zone" }, "geometry": { "type": "Polygon", "coordinates": [ [ [ -124.287551924346559, 41.749211906707565 ], [ -124.282638626725301, 41.742410252542115 ], [ -124.283467602739734, 41.737215474658719 ], [ -124.287551924346559, 41.73358290677853 ], [ -124.292865390457081, 41.736505827748637 ], [ -124.290464495371822, 41.741255132503341 ], [ -124.287551924346559, 41.749211906707565 ] ] ] } },
{ "type": "Feature", "properties": { "zone_type": "Residential", "zone_code": "Z2105", "area_acres": 0.023807551049889589, "description": "Synthetic Residential zone" }, "geometry": { "type": "Polygon", "coordinates": [ [ [ -124.288809912876673, 41.724846199374532 ], [ -124.285962909128827, 41.717676188983489 ], [ -124.281717399616454, 41.711937606163268 ], [ -124.288809912876673, 41.708120846295259 ], [ -124.29189612963691, 41.714250642525982 ], [ -124.293960644155533, 41.719006246693652 ], [ -124.288809912876673, 41.724846199374532 ] ] ] } },
{ "type": "Feature", "properties": { "zone_type": "Commercial", "zone_code": "Z2285", "area_acres": 0.013848591604274799, "description": "Synthetic Commercial zone" }, "geometry": { "type": "Polygon", "coordinates": [ [ [ -124.216101758780681, 41.823096608086104 ], [ -124.213865157284872, 41.817176149946228 ], [ -124.214311384418863, 41.814851174350807 ], [ -124.216101758780681, 41.809886919826177 ], [ -124.217901185003328, 41.814845948256519 ], [ -124.223615750351229, 41.820223052526487 ], [ -124.216101758780681, 41.823096608086104 ] ] ] } },
{ "type": "Feature", "properties": { "zone_type": "Conservation", "zone_code": "Z1409", "area_acres": 0.023127393655299693, "description": "Synthetic Conservation zone" }, "geometry": { "type": "Polygon", "coordinates": [ [ [ -124.23067088055312, 41.769003850064244 ], [ -124.222449699878425, 41.769468699138628 ], [ -124.22652497741241, 41.762328559968715 ], [ -124.23067088055312, 41.755799442118338 ], [ -124.233925238099701, 41.762843294057483 ], [ -124.236467134342988, 41.768068666948906 ], [ -124.23067088055312, 41.769003850064244 ] ] ] } },
{ "type": "Feature", "properties": { "zone_type": "Agricultural", "zone_code": "Z4617", "area_acres": 0.015331877869674894, "description": "Synthetic Agricultural zone" }, "geometry": { "type": "Polygon", "coordinates": [ [ [ -124.104106154753268, 41.717195697852354 ], [ -124.099507310783167, 41.717725661811329 ], [ -124.099065226857647, 41.712160136929732 ], [ -124.104106154753268, 41.706377752780696 ], [ -124.106808267339218, 41.713510452578348 ], [ -124.107965111650486, 41.717298487810631 ], [ -124.104106154753268, 41.717195697852354 ] ] ] } },
{ "type": "Feature", "properties": { "zone_type": "Conservation", "zone_code": "Z9094", "area_acres": 0.034482632352418142, "description": "Synthetic Conservation zone" }, "geometry": { "type": "Polygon", "coordinates": [ [ [ -124.129976384015308, 41.830578128544879 ], [ -124.124125546115238, 41.828893593338762 ], [ -124.121575903377504, 41.820665590744611 ], [ -124.129976384015308, 41.816200957735113 ], [ -124.136567622058024, 41.82171015744391 ], [ -124.134164436858995, 41.827933583938851 ], [ -124.129976384015308, 41.830578128544879 ] ] ] } },
{ "type": "Feature", "properties": { "zone_type": "Commercial", "zone_code": "Z1976", "area_acres": 0.029077664576607789, "description": "Synthetic Commercial zone" }, "geometry": { "type": "Polygon", "coordinates": [ [ [ -124.280855998479637, 41.687529072099544 ], [ -124.275163990545835, 41.68543903661115 ], [ -124.27554072078712, 41.679083977291747 ], [ -124.280855998479637, 41.674129210179423 ], [ -124.289311674409561, 41.677270867524022 ], [ -124.284773922457703, 41.684414768761741 ], [ -124.280855998479637, 41.687529072099544 ] ] ] } },
{ "type": "Feature", "properties": { "zone_type": "Residential", "zone_code": "Z3807", "area_acres": 0.026123573012945954, "description": "Synthetic Residential zone" }, "geometry": { "type": "Polygon", "coordinates": [ [ [ -124.294771478458173, 41.813382201074567 ], [ -124.289045201481201, 41.812633206422113 ], [ -124.290256624546757, 41.806720486746897 ], [ -124.294771478458173, 41.800213147314757 ], [ -124.303068998101182, 41.804536563668513 ], [ -124.297821586893164, 41.811088119794 ], [ -124.294771478458173, 41.813382201074567 ] ] ] } },
{ "type": "Feature", "properties": { "zone_type": "Agricultural", "zone_code": "Z4736", "area_acres": 0.031892046296780344, "description": "Synthetic Agricultural zone" }, "geometry": { "type": "Polygon", "coordinates": [ [ [ -124.222882568379163, 41.794871815315183 ], [ -124.216925930790296, 41.793768687879307 ], [ -124.22089048230329, 41.789179490131758 ], [ -124.222882568379163, 41.781204283940191 ], [ -124.231447923197123, 41.785384411654057 ], [ -124.231268244041303, 41.795171093664791 ], [ -124.222882568379163, 41.794871815315183 ] ] ] } },
{ "type": "Feature", "properties": { "zone_type": "Conservation", "zone_code": "Z5881", "area_acres": 0.025378334688038223, "description": "Synthetic Conservation zone" }, "geometry": { "type": "Polygon", "coordinates": [ [ [ -124.109131804452204, 41.706151598744704 ], [ -124.102232206373671, 41.702422296662441 ], [ -124.106203233173375, 41.696748000438326 ], [ -124.109131804452204, 41.691098224725586 ], [ -124.115526239734947, 41.694746982922695 ], [ -124.11313420114557, 41.700749596662824 ], [ -124.109131804452204, 41.706151598744704 ] ] ] } },
{ "type": "Feature", "properties": { "zone_type": "Agricultural", "zone_code": "Z5844", "area_acres": 0.036316776837867458, "description": "Synthetic Agricultural zone" }, "geometry": { "type": "Polygon", "coordinates": [ [ [ -124.293627705543969, 41.679075162615099 ], [ -124.287515069351045, 41.67278239968261 ], [ -124.288714078364663, 41.666416383556495 ], [ -124.293627705543969, 41.661787493379038 ], [ -124.301646555978991, 41.664623582073915 ], [ -124.299008255721347, 41.672359729624468 ], [ -124.293627705543969, 41.679075162615099 ] ] ] } },
{ "type": "Feature", "properties": { "zone_type": "Agricultural", "zone_code": "Z9216", "area_acres": 0.021452821464593468, "description": "Synthetic Agricultural zone" }, "geometry": { "type": "Polygon", "coordinates": [ [ [ -124.108542479185559, 41.83970267446248 ], [ -124.105191018885975, 41.83951847909362 ], [ -124.103892703528231, 41.834898963360047 ], [ -124.108542479185559, 41.830073832120391 ], [ -124.11410047683799, 41.834374601146692 ], [ -124.116962257795294, 41.842444674034326 ], [ -124.108542479185559, 41.83970267446248 ] ] ] } },
{ "type": "Feature", "properties": { "zone_type": "Commercial", "zone_code": "Z7373", "area_acres": 0.014903352486719867, "description": "Synthetic Commercial zone" }, "geometry": { "type": "Polygon", "coordinates": [ [ [ -124.286352942437631, 41.796206437646468 ], [ -124.283125549607647, 41.795597185393625 ], [ -124.283996724415474, 41.79237348616509 ], [ -124.286352942437631, 41.790044767019083 ], [ -124.292108130548215, 41.790411089869572 ], [ -124.294461986286947, 41.798415607923729 ], [ -124.286352942437631, 41.796206437646468 ] ] ] } },
{ "type": "Feature", "properties": { "zone_type": "Agricultural", "zone_code": "Z3598", "area_acres": 0.01863785787207289, "description": "Synthetic Agricultural zone" }, "geometry": { "type": "Polygon", "coordinates": [ [ [ -124.141019590808455, 41.798186732811899 ], [ -124.13684350386292, 41.79832054568989 ], [ -124.138360180791523, 41.794374069678561 ], [ -124.141019590808455, 41.792157392019739 ], [ -124.148310047652046, 41.791700333546565 ], [ -124.149544905172831, 41.80083157331093 ], [ -124.141019590808455, 41.798186732811899 ] ] ] } },
{ "type": "Feature", "properties": { "zone_type": "Agricultural", "zone_code": "Z4760", "area_acres": 0.0094544174275752683, "description": "Synthetic Agricultural zone" }, "geometry": { "type": "Polygon", "coordinates": [ [ [ -124.247759698721381, 41.72668320857391 ], [ -124.244167732406638, 41.725054368048788 ], [ -124.24367952237499, 41.720624854418126 ], [ -124.247759698721381, 41.719028265715586 ], [ -124.250061255309689, 41.721651741014242 ], [ -124.251073409027953, 41.72489371686757 ], [ -124.247759698721381, 41.72668320857391 ] ] ] } },
{ "type": "Feature", "properties": { "zone_type": "Conservation", "zone_code": "Z5664", "area_acres": 0.038302420734527373, "description": "Synthetic Conservation zone" }, "geometry": { "type": "Polygon", "coordinates": [ [ [ -124.217709505702103, 41.813917094444562 ], [ -124.209507990283356, 41.80950551234379 ], [ -124.212591932244464, 41.801815732795653 ], [ -124.217709505702103, 41.797267329004875 ], [ -124.223236335244124, 41.801579448685168 ], [ -124.224578265526148, 41.808736045542432 ], [ -124.217709505702103, 41.813917094444562 ] ] ] } },
{ "type": "Feature", "properties": { "zone_type": "Industrial", "zone_code": "Z4509", "area_acres": 0.012774386139295409, "description": "Synthetic Industrial zone" }, "geometry": { "type": "Polygon", "coordinates": [ [ [ -124.114023225191929, 41.767147263537154 ], [ -124.110654355758143, 41.762607963619082 ], [ -124.111853482720491, 41.759410244544668 ], [ -124.114023225191929, 41.75865796496759 ], [ -124.120202831488029, 41.757095148586082 ], [ -124.118161790243747, 41.763052347591348 ], [ -124.114023225191929, 41.767147263537154 ] ] ] } },
{ "type": "Feature", "properties": { "zone_type": "Commercial", "zone_code": "Z3245", "area_acres": 0.025457020403694172, "description": "Synthetic Commercial zone" }, "geometry": { "type": "Polygon", "coordinates": [ [ [ -124.257389830553706, 41.859118860249033 ], [ -124.250643975714496, 41.857297672121987 ], [ -124.250104000184905, 41.849196474889951 ], [ -124.257389830553706, 41.849758883624673 ], [ -124.265638008727876, 41.848640863125468 ], [ -124.260941248310402, 41.855453363012479 ], [ -124.257389830553706, 41.859118860249033 ] ] ] } },
{ "type": "Feature", "properties": { "zone_type": "Industrial", "zone_code": "Z6568", "area_acres": 0.024298136469400905, "description": "Synthetic Industrial zone" }, "geometry": { "type": "Polygon", "coordinates": [ [ [ -124.12694203219452, 41.854202827072257 ], [ -124.124598878938841, 41.849375367877201 ], [ -124.1217192634616, 41.845007180780414 ], [ -124.12694203219452, 41.844933478120787 ], [ -124.135464589357184, 41.84310204704223 ], [ -124.134780974755174, 41.852548363311833 ], [ -124.12694203219452, 41.854202827072257 ] ] ] } },
{ "type": "Feature", "properties": { "zone_type": "Commercial", "zone_code": "Z6974", "area_acres": 0.012352807112696403, "description": "Synthetic Commercial zone" }, "geometry": { "type": "Polygon", "coordinates": [ [ [ -124.117138119451809, 41.772257385398291 ], [ -124.114074861986211, 41.769804603986529 ], [ -124.113326096027308, 41.76583515871387 ], [ -124.117138119451809, 41.761501404178972 ], [ -124.119710466812066, 41.766550886023268 ], [ -124.121566309595707, 41.77059264823577 ], [ -124.117138119451809, 41.772257385398291 ] ] ] } },
{ "type": "Feature", "properties": { "zone_type": "Conservation", "zone_code": "Z2409", "area_acres": 0.027413966129300787, "description": "Synthetic Conservation zone" }, "geometry": { "type": "Polygon", "coordinates": [ [ [ -124.232067022241736, 41.844508694669976 ], [ -124.225236387945316, 41.841129522928654 ], [ -124.227271751147541, 41.834417303321814 ], [ -124.232067022241736, 41.830381933202425 ], [ -124.238112115614967, 41.833695718092571 ], [ -124.236281668653731, 41.839619181619383 ], [ -124.232067022241736, 41.844508694669976 ] ] ] } },
{ "type": "Feature", "properties": { "zone_type": "Commercial", "zone_code": "Z8654", "area_acres": 0.020110293598128808, "description": "Synthetic Commercial zone" }, "geometry": { "type": "Polygon", "coordinates": [ [ [ -124.204554133734248, 41.68522828954243 ], [ -124.200054703851066, 41.681970868216673 ], [ -124.199721154946928, 41.676582799558574 ], [ -124.204554133734248, 41.675425767897636 ], [ -124.209400445585445, 41.676575101710554 ], [ -124.210938175099344, 41.683058949163076 ], [ -124.204554133734248, 41.68522828954243 ] ] ] } },
{ "type": "Feature", "properties": { "zone_type": "Agricultural", "zone_code": "Z7387", "area_acres": 0.026919938334416679, "description": "Synthetic Agricultural zone" }, "geometry": { "type": "Polygon", "coordinates": [ [ [ -124.147831194598155, 41.686967170237487 ], [ -124.140736608530446, 41.682804795347188 ], [ -124.145462901214856, 41.67734139934884 ], [ -124.147831194598155, 41.674111878715287 ], [ -124.153622946098054, 41.675364864883669 ], [ -124.154681141693629, 41.682663552970716 ], [ -124.147831194598155, 41.686967170237487 ] ] ] } },
{ "type": "Feature", "properties": { "zone_type": "Conservation", "zone_code": "Z8247", "area_acres": 0.033892244224127469, "description": "Synthetic Conservation zone" }, "geometry": { "type": "Polygon", "coordinates": [ [ [ -124.111596847729317, 41.705720918082072 ], [ -124.103554844969864, 41.702417964664491 ], [ -124.108674914479593, 41.696087933258219 ], [ -124.111596847729317, 41.689043659989053 ], [ -124.118360143697672, 41.693870121458559 ], [ -124.117862254062985, 41.701392246239827 ], [ -124.111596847729317, 41.705720918082072 ] ] ] } },
{ "type": "Feature", "properties": { "zone_type": "Agricultural", "zone_code": "Z7535", "area_acres": 0.023313707249594792, "description": "Synthetic Agricultural zone" }, "geometry": { "type": "Polygon", "coordinates": [ [ [ -124.262478533340087, 41.73271058902813 ], [ -124.259246302828785, 41.729613178733103 ], [ -124.2565468695351, 41.724322401882766 ], [ -124.262478533340087, 41.718848270145244 ], [ -124.270620846130697, 41.723046083095831 ], [ -124.264237732323821, 41.728762723584133 ], [ -124.262478533340087, 41.73271058902813 ] ] ] } },
{ "type": "Feature", "properties": { "zone_type": "Industrial", "zone_code": "Z9407", "area_acres": 0.020806565176240792, "description": "Synthetic Industrial zone" }, "geometry": { "type": "Polygon", "coordinates": [ [ [ -124.124052327688233, 41.691126497535841 ], [ -124.119140006004073, 41.68845391940075 ], [ -124.119566299923619, 41.683027779816562 ], [ -124.124052327688233, 41.682040609892525 ], [ -124.1323204978939, 41.680844158860104 ], [ -124.12871971945566, 41.688312509047385 ], [ -124.124052327688233, 41.691126497535841 ] ] ] } },
{ "type": "Feature", "properties": { "zone_type": "Residential", "zone_code": "Z8944", "area_acres": 0.025612204912364978, "description": "Synthetic Residential zone" }, "geometry": { "type": "Polygon", "coordinates": [ [ [ -124.163078351653539, 41.850398465877703 ], [ -124.154707642384523, 41.849702756391444 ], [ -124.154458778411893, 41.839893412210309 ], [ -124.163078351653539, 41.839378152857357 ], [ -124.16579105013038, 41.843303747945839 ], [ -124.164864795537312, 41.845901328998863 ], [ -124.163078351653539, 41.850398465877703 ] ] ] } },
{ "type": "Feature", "properties": { "zone_type": "Residential", "zone_code": "Z3529", "area_acres": 0.033895967743910821, "description": "Synthetic Residential zone" }, "geometry": { "type": "Polygon", "coordinates": [ [ [ -124.154413762541779, 41.772618786217976 ], [ -124.149545777722849, 41.768796882188838 ], [ -124.14662569400042, 41.761489906374393 ], [ -124.154413762541779, 41.756386792596224 ], [ -124.158115686176558, 41.763849043236164 ], [ -124.162480286671752, 41.77064355972108 ], [ -124.154413762541779, 41.772618786217976 ] ] ] } }
]
}
