{
"type": "FeatureCollection",
"name": "synthetic_current_use_data",
"crs": { "type": "name", "properties": { "name": "urn:ogc:def:crs:OGC:1.3:CRS84" } },
"features": [
{ "type": "Feature", "properties": { "land_use": "Residential", "use_code": "LU3169", "area_acres": 0.088693887086535347, "description": "Synthetic Open Space land use" }, "geometry": { "type": "Polygon", "coordinates": [ [ [ -124.060189899585708, 41.82391133109158 ], [ -124.045182865788846, 41.824119048348479 ], [ -124.051841581017712, 41.810634829373612 ], [ -124.060189899585708, 41.806125343048485 ], [ -124.06802650480229, 41.810930267214793 ], [ -124.077058575855744, 41.8251938681315 ], [ -124.060189899585708, 41.82391133109158 ] ] ] } },
{ "type": "Feature", "properties": { "land_use": "Industrial", "use_code": "LU5609", "area_acres": 0.11054972116215479, "description": "Synthetic Forest land use" }, "geometry": { "type": "Polygon", "coordinates": [ [ [ -124.050786926668906, 41.763657820133709 ], [ -124.034939614090277, 41.752872563068216 ], [ -124.045942505088973, 41.74092618478177 ], [ -124.050786926668906, 41.740756348350928 ], [ -124.056972018446302, 41.740152148482366 ], [ -124.067682599554956, 41.753477834173914 ], [ -124.050786926668906, 41.763657820133709 ] ] ] } },
{ "type": "Feature", "properties": { "land_use": "Open Space", "use_code": "LU6008", "area_acres": 0.11563050977178348, "description": "Synthetic Agriculture land use" }, "geometry": { "type": "Polygon", "coordinates": [ [ [ -124.120243094701181, 41.942866219428971 ], [ -124.114384968626709, 41.93537636050295 ], [ -124.105107424746478, 41.923255586714191 ], [ -124.120243094701181, 41.920020485751287 ], [ -124.134818639928369, 41.923578974876399 ], [ -124.135189634044025, 41.940623558349948 ], [ -124.120243094701181, 41.942866219428971 ] ] ] } },
{ "type": "Feature", "properties": { "land_use": "Forest", "use_code": "LU5176", "area_acres": 0.029715080932318564, "description": "Synthetic Forest land use" }, "geometry": { "type": "Polygon", "coordinates": [ [ [ -124.279110000836496, 41.89491138801575 ], [ -124.277111415177799, 41.885512799926992 ], [ -124.264927995723014, 41.876170931489028 ], [ -124.279110000836496, 41.878038523966055 ], [ -124.284534700264075, 41.881226964284167 ], [ -124.282842365725671, 41.886513797832421 ], [ -124.279110000836496, 41.89491138801575 ] ] ] } },
{ "type": "Feature", "properties": { "land_use": "Industrial", "use_code": "LU3871", "area_acres": 0.12463617003599192, "description": "Synthetic Residential land use" }, "geometry": { "type": "Polygon", "coordinates": [ [ [ -124.106043722215148, 41.723804258231787 ], [ -124.090766248952022, 41.716820655085172 ], [ -124.091829862349101, 41.699793825964278 ], [ -124.106043722215148, 41.693199616127572 ], [ -124.113247821049654, 41.703840913382798 ], [ -124.114317328543407, 41.712776970624958 ], [ -124.106043722215148, 41.723804258231787 ] ] ] } },
{ "type": "Feature", "properties": { "land_use": "Commercial", "use_code": "LU1595", "area_acres": 0.044551921148078433, "description": "Synthetic Open Space land use" }, "geometry": { "type": "Polygon", "coordinates": [ [ [ -124.039773475943974, 41.740538017701603 ], [ -124.028539908489336, 41.742221754318102 ], [ -124.024569668121202, 41.726958128585025 ], [ -124.039773475943974, 41.73167457521896 ], [ -124.044171474025504, 41.733196865747942 ], [ -124.042791668984151, 41.737478605688416 ], [ -124.039773475943974, 41.740538017701603 ] ] ] } },
{ "type": "Feature", "properties": { "land_use": "Commercial", "use_code": "LU4344", "area_acres": 0.050863395274015837, "description": "Synthetic Commercial land use" }, "geometry": { "type": "Polygon", "coordinates": [ [ [ -124.318801259419374, 41.824088499947244 ], [ -124.314654785924645, 41.813482108135929 ], [ -124.308525670607537, 41.805155526580961 ], [ -124.318801259419374, 41.806934287366531 ], [ -124.328896501779624, 41.805259649653337 ], [ -124.327883844958464, 41.816331973753492 ], [ -124.318801259419374, 41.824088499947244 ] ] ] } },
{ "type": "Feature", "properties": { "land_use": "Agriculture", "use_code": "LU6506", "area_acres": 0.029866419457253345, "description": "Synthetic Residential land use" }, "geometry": { "type": "Polygon", "coordinates": [ [ [ -124.195240583515243, 41.567723634322505 ], [ -124.186847834261457, 41.560804591795623 ], [ -124.192752696842675, 41.554522653714585 ], [ -124.195240583515243, 41.552095380108668 ], [ -124.198339833447065, 41.55416968297228 ], [ -124.201581858431624, 41.559620172534679 ], [ -124.195240583515243, 41.567723634322505 ] ] ] } },
{ "type": "Feature", "properties": { "land_use": "Residential", "use_code": "LU9641", "area_acres": 0.080621843804465854, "description": "Synthetic Residential land use" }, "geometry": { "type": "Polygon", "coordinates": [ [ [ -124.117832288726447, 41.674238150004122 ], [ -124.106110108738179, 41.674053694357248 ], [ -124.103426937446955, 41.658968957146548 ], [ -124.117832288726447, 41.64979822070687 ], [ -124.120604614070686, 41.665685287801757 ], [ -124.125283213554823, 41.671587684040908 ], [ -124.117832288726447, 41.674238150004122 ] ] ] } },
{ "type": "Feature", "properties": { "land_use": "Commercial", "use_code": "LU4216", "area_acres": 0.052556061061673334, "description": "Synthetic Open Space land use" }, "geometry": { "type": "Polygon", "coordinates": [ [ [ -124.317564515019157, 41.907427385034872 ], [ -124.312879440011415, 41.896835971274427 ], [ -124.309258930170159, 41.889335810309184 ], [ -124.317564515019157, 41.887079484993713 ], [ -124.327351366557423, 41.8884806005874 ], [ -124.325312058348615, 41.898604088184356 ], [ -124.317564515019157, 41.907427385034872 ] ] ] } },
{ "type": "Feature", "properties": { "land_use": "Industrial", "use_code": "LU1252", "area_acres": 0.046989797063219867, "description": "Synthetic Residential land use" }, "geometry": { "type": "Polygon", "coordinates": [ [ [ -124.267427719898876, 41.606226250701624 ], [ -124.261458044760985, 41.604951087854687 ], [ -124.26074996246814, 41.597649089256635 ], [ -124.267427719898876, 41.5816103959393 ], [ -124.271114088117343, 41.599376168623586 ], [ -124.278556552045529, 41.607929728542487 ], [ -124.267427719898876, 41.606226250701624 ] ] ] } },
{ "type": "Feature", "properties": { "land_use": "Commercial", "use_code": "LU4125", "area_acres": 0.12915223656106356, "description": "Synthetic Agriculture land use" }, "geometry": { "type": "Polygon", "coordinates": [ [ [ -124.370828491567963, 41.854066077039917 ], [ -124.354351047378017, 41.851777345929854 ], [ -124.357151929143825, 41.834367922094074 ], [ -124.370828491567963, 41.823489758480257 ], [ -124.380661970012994, 41.836586727663928 ], [ -124.377273860741312, 41.845985324718498 ], [ -124.370828491567963, 41.854066077039917 ] ] ] } },
{ "type": "Feature", "properties": { "land_use": "Agriculture", "use_code": "LU7988", "area_acres": 0.10264087336489663, "description": "Synthetic Industrial land use" }, "geometry": { "type": "Polygon", "coordinates": [ [ [ -124.05805437732883, 41.811255037085601 ], [ -124.047879806955933, 41.799300253286205 ], [ -124.050512315209389, 41.789071550747622 ], [ -124.05805437732883, 41.779056027872606 ], [ -124.068913611470052, 41.787156380587902 ], [ -124.067811608013685, 41.799059302104972 ], [ -124.05805437732883, 41.811255037085601 ] ] ] } },
{ "type": "Feature", "properties": { "land_use": "Industrial", "use_code": "LU3719", "area_acres": 0.10026080086768377, "description": "Synthetic Open Space land use" }, "geometry": { "type": "Polygon", "coordinates": [ [ [ -124.305264938058187, 41.733567101631522 ], [ -124.288913296352561, 41.733241474627206 ], [ -124.288776055224389, 41.71428098894404 ], [ -124.305264938058187, 41.720533616271759 ], [ -124.318748506996698, 41.716016107730489 ], [ -124.314837638936027, 41.729327651315465 ], [ -124.305264938058187, 41.733567101631522 ] ] ] } },
{ "type": "Feature", "properties": { "land_use": "Forest", "use_code": "LU1647", "area_acres": 0.20460333756044952, "description": "Synthetic Agriculture land use" }, "geometry": { "type": "Polygon", "coordinates": [ [ [ -124.03405018671944, 41.898859783876716 ], [ -124.017782942345107, 41.893613489641332 ], [ -124.01701221357871, 41.874384713343588 ], [ -124.03405018671944, 41.867870749889093 ], [ -124.050644726976472, 41.874640729438362 ], [ -124.050260950115188, 41.89358088033314 ], [ -124.03405018671944, 41.898859783876716 ] ] ] } },
{ "type": "Feature", "properties": { "land_use": "Open Space", "use_code": "LU5870", "area_acres": 0.085486506725450717, "description": "Synthetic Forest land use" }, "geometry": { "type": "Polygon", "coordinates": [ [ [ -124.010650710405272, 41.955551566879258 ], [ -124.005762280623642, 41.941821030591839 ], [ -124.003667247236223, 41.934966790000971 ], [ -124.010650710405272, 41.929750222031991 ], [ -124.021994794803476, 41.932449184160483 ], [ -124.024210235028207, 41.946827289532635 ], [ -124.010650710405272, 41.955551566879258 ] ] ] } },
{ "type": "Feature", "properties": { "land_use": "Commercial", "use_code": "LU4990", "area_acres": 0.053854021068969818, "description": "Synthetic Agriculture land use" }, "geometry": { "type": "Polygon", "coordinates": [ [ [ -124.279197857944268, 41.614588041313418 ], [ -124.268587137636374, 41.607898030576571 ], [ -124.275577385129836, 41.599681647396508 ], [ -124.279197857944268, 41.595411117703151 ], [ -124.292570549281621, 41.594051201407105 ], [ -124.284415660066145, 41.604784427810159 ], [ -124.279197857944268, 41.614588041313418 ] ] ] } },
{ "type": "Feature", "properties": { "land_use": "Industrial", "use_code": "LU1406", "area_acres": 0.14416962694210445, "description": "Synthetic Commercial land use" }, "geometry": { "type": "Polygon", "coordinates": [ [ [ -124.02473766341204, 41.614033844490379 ], [ -124.011170959953148, 41.603826914131915 ], [ -124.012484093477511, 41.588919572337673 ], [ -124.02473766341204, 41.579334696618147 ], [ -124.038627473159011, 41.587974888841501 ], [ -124.033383573413829, 41.600985892704834 ], [ -124.02473766341204, 41.614033844490379 ] ] ] } },
{ "type": "Feature", "properties": { "land_use": "Forest", "use_code": "LU7053", "area_acres": 0.13453247874989122, "description": "Synthetic Forest land use" }, "geometry": { "type": "Polygon", "coordinates": [ [ [ -124.280021391190502, 41.838348315368712 ], [ -124.272612699945753, 41.822671318283305 ], [ -124.267330344217555, 41.811066729012673 ], [ -124.280021391190502, 41.799539200339112 ], [ -124.288665460647621, 41.813403252570843 ], [ -124.294392046064615, 41.826690809858803 ], [ -124.280021391190502, 41.838348315368712 ] ] ] } },
{ "type": "Feature", "properties": { "land_use": "Commercial", "use_code": "LU2228", "area_acres": 0.051076055677108725, "description": "Synthetic Open Space land use" }, "geometry": { "type": "Polygon", "coordinates": [ [ [ -124.17073167215932, 41.601887541912674 ], [ -124.164909746402174, 41.594594289973095 ], [ -124.164217607604741, 41.587472102645897 ], [ -124.17073167215932, 41.571779085384691 ], [ -124.176128393682973, 41.588117200945582 ], [ -124.175224284314695, 41.593826810407272 ], [ -124.17073167215932, 41.601887541912674 ] ] ] } },
{ "type": "Feature", "properties": { "land_use": "Industrial", "use_code": "LU8992", "area_acres": 0.10198540645124841, "description": "Synthetic Industrial land use" }, "geometry": { "type": "Polygon", "coordinates": [ [ [ -124.027328017746086, 41.718340112409116 ], [ -124.010710210665025, 41.714508615850342 ], [ -124.016361339997189, 41.698582706108311 ], [ -124.027328017746086, 41.700291611666415 ], [ -124.040333243775024, 41.697405749710079 ], [ -124.037210417059228, 41.71061992636244 ], [ -124.027328017746086, 41.718340112409116 ] ] ] } },
{ "type": "Feature", "properties": { "land_use": "Agriculture", "use_code": "LU2713", "area_acres": 0.080126510710989335, "description": "Synthetic Open Space land use" }, "geometry": { "type": "Polygon", "coordinates": [ [ [ -124.259715140948131, 41.832189133637357 ], [ -124.245435920800404, 41.833898151186986 ], [ -124.249169481615453, 41.819565500336381 ], [ -124.259715140948131, 41.820141860672393 ], [ -124.26832480301735, 41.820683248877586 ], [ -124.276450263296212, 41.835316066983466 ], [ -124.259715140948131, 41.832189133637357 ] ] ] } },
{ "type": "Feature", "properties": { "land_use": "Commercial", "use_code": "LU9021", "area_acres": 0.084773881316920277, "description": "Synthetic Residential land use" }, "geometry": { "type": "Polygon", "coordinates": [ [ [ -124.196345615675696, 41.598871143354131 ], [ -124.189806994426931, 41.584933748143442 ], [ -124.18295922990896, 41.573430039979435 ], [ -124.196345615675696, 41.562035034801262 ], [ -124.198340565867085, 41.580006888375323 ], [ -124.205093852354281, 41.586209470206654 ], [ -124.196345615675696, 41.598871143354131 ] ] ] } },
{ "type": "Feature", "properties": { "land_use": "Industrial", "use_code": "LU4026", "area_acres": 0.11380472618666131, "description": "Synthetic Agriculture land use" }, "geometry": { "type": "Polygon", "coordinates": [ [ [ -124.316971269420549, 41.715122379380382 ], [ -124.308984089651517, 41.715330886931937 ], [ -124.299735033173818, 41.700768140905353 ], [ -124.316971269420549, 41.691602000138808 ], [ -124.332333170343162, 41.701850288909291 ], [ -124.321658290419137, 41.713425539377454 ], [ -124.316971269420549, 41.715122379380382 ] ] ] } },
{ "type": "Feature", "properties": { "land_use": "Open Space", "use_code": "LU2973", "area_acres": 0.085002657081333755, "description": "Synthetic Residential land use" }, "geometry": { "type": "Polygon", "coordinates": [ [ [ -124.008844330857443, 41.665705453669823 ], [ -123.997535033101158, 41.658049487267412 ], [ -124.004037398155731, 41.648744777274167 ], [ -124.008844330857443, 41.635017431480989 ], [ -124.025464302647578, 41.641924515976513 ], [ -124.012175659640562, 41.653443404733167 ], [ -124.008844330857443, 41.665705453669823 ] ] ] } },
{ "type": "Feature", "properties": { "land_use": "Agriculture", "use_code": "LU8276", "area_acres": 0.068699249470143317, "description": "Synthetic Agriculture land use" }, "geometry": { "type": "Polygon", "coordinates": [ [ [ -124.202235653352901, 41.761658707634339 ], [ -124.185816841701325, 41.767723529315099 ], [ -124.192203514753814, 41.752452066067555 ], [ -124.202235653352901, 41.743310720699675 ], [ -124.20866721906232, 41.754530857794634 ], [ -124.208131070215174, 41.761647844500708 ], [ -124.202235653352901, 41.761658707634339 ] ] ] } },
{ "type": "Feature", "properties": { "land_use": "Industrial", "use_code": "LU7795", "area_acres": 0.074066026225918291, "description": "Synthetic Agriculture land use" }, "geometry": { "type": "Polygon", "coordinates": [ [ [ -124.124415349181902, 41.899647499744056 ], [ -124.117060279203301, 41.891772174221018 ], [ -124.112558792169423, 41.880680336206147 ], [ -124.124415349181902, 41.871075009874538 ], [ -124.128190057143769, 41.885346393931073 ], [ -124.133667017460184, 41.892867175759889 ], [ -124.124415349181902, 41.899647499744056 ] ] ] } },
{ "type": "Feature", "properties": { "land_use": "Residential", "use_code": "LU6019", "area_acres": 0.13726275121971382, "description": "Synthetic Agriculture land use" }, "geometry": { "type": "Polygon", "coordinates": [ [ [ -124.123991407828598, 41.91887764591015 ], [ -124.111892260469588, 41.912685717539588 ], [ -124.110111454055499, 41.897686676507668 ], [ -124.123991407828598, 41.885993950876767 ], [ -124.139319537409804, 41.896850571815023 ], [ -124.129886869021306, 41.909104017661519 ], [ -124.123991407828598, 41.91887764591015 ] ] ] } },
{ "type": "Feature", "properties": { "land_use": "Residential", "use_code": "LU5742", "area_acres": 0.054787746090460311, "description": "Synthetic Commercial land use" }, "geometry": { "type": "Polygon", "coordinates": [ [ [ -124.080474828861341, 41.947327816221147 ], [ -124.070057198182894, 41.946651285893957 ], [ -124.07308911749432, 41.936372521571528 ], [ -124.080474828861341, 41.933450937684043 ], [ -124.097378425509689, 41.930877367942237 ], [ -124.084685101663354, 41.943067466153032 ], [ -124.080474828861341, 41.947327816221147 ] ] ] } },
{ "type": "Feature", "properties": { "land_use": "Open Space", "use_code": "LU5230", "area_acres": 0.046431065503255049, "description": "Synthetic Forest land use" }, "geometry": { "type": "Polygon", "coordinates": [ [ [ -124.001658937600908, 41.927272682873443 ], [ -123.984614533917394, 41.931946949371358 ], [ -123.99636675055379, 41.91905091270025 ], [ -124.001658937600908, 41.914862374767338 ], [ -124.010713594677284, 41.916878649616038 ], [ -124.006758149357239, 41.925050389596677 ], [ -124.001658937600908, 41.927272682873443 ] ] ] } },
{ "type": "Feature", "properties": { "land_use": "Industrial", "use_code": "LU6179", "area_acres": 0.075997974970758428, "description": "Synthetic Open Space land use" }, "geometry": { "type": "Polygon", "coordinates": [ [ [ -124.077385977167737, 41.730207771176921 ], [ -124.060997514729777, 41.735098181881376 ], [ -124.071314906109336, 41.72213116417138 ], [ -124.077385977167737, 41.718325609076189 ], [ -124.090529470158785, 41.718047899464743 ], [ -124.0918089151223, 41.733963385791789 ], [ -124.077385977167737, 41.730207771176921 ] ] ] } },
{ "type": "Feature", "properties": { "land_use": "Forest", "use_code": "LU2541", "area_acres": 0.043529926707105669, "description": "Synthetic Open Space land use" }, "geometry": { "type": "Polygon", "coordinates": [ [ [ -124.275925941920647, 41.72261419659754 ], [ -124.273126848259267, 41.712809796429653 ], [ -124.26179711869807, 41.703036459059881 ], [ -124.275925941920647, 41.707010418155619 ], [ -124.287075594828863, 41.704756483842843 ], [ -124.28287957879796, 41.715208423073733 ], [ -124.275925941920647, 41.72261419659754 ] ] ] } },
{ "type": "Feature", "properties": { "land_use": "Agriculture", "use_code": "LU9873", "area_acres": 0.029040659583420437, "description": "Synthetic Industrial land use" }, "geometry": { "type": "Polygon", "coordinates": [ [ [ -124.353603691699405, 41.706647365957231 ], [ -124.341520400685354, 41.710217333893915 ], [ -124.351549469288685, 41.702055036712451 ], [ -124.353603691699405, 41.699442911920471 ], [ -124.366916526347794, 41.695554873906332 ], [ -124.359294178832641, 41.70652644685245 ], [ -124.353603691699405, 41.706647365957231 ] ] ] } },
{ "type": "Feature", "properties": { "land_use": "Commercial", "use_code": "LU1956", "area_acres": 0.12049518811679678, "description": "Synthetic Residential land use" }, "geometry": { "type": "Polygon", "coordinates": [ [ [ -124.019968071751506, 41.644263961747065 ], [ -124.006002167918666, 41.642487086702097 ], [ -124.006784245883509, 41.626812182950886 ], [ -124.019968071751506, 41.620075421783966 ], [ -124.033997912081503, 41.62632373627352 ], [ -124.028982817043428, 41.639628533985693 ], [ -124.019968071751506, 41.644263961747065 ] ] ] } },
{ "type": "Feature", "properties": { "land_use": "Commercial", "use_code": "LU8640", "area_acres": 0.13949734300427422, "description": "Synthetic Residential land use" }, "geometry": { "type": "Polygon", "coordinates": [ [ [ -124.109760747237857, 41.639529785350533 ], [ -124.097659966450323, 41.630488827357929 ], [ -124.102276932969687, 41.61918165613055 ], [ -124.109760747237857, 41.612583463955986 ], [ -124.12516555301535, 41.61460846955039 ], [ -124.126931084346623, 41.633415737064659 ], [ -124.109760747237857, 41.639529785350533 ] ] ] } },
{ "type": "Feature", "properties": { "land_use": "Agriculture", "use_code": "LU7862", "area_acres": 0.095760337467317463, "description": "Synthetic Open Space land use" }, "geometry": { "type": "Polygon", "coordinates": [ [ [ -124.167527562626105, 41.753138346804064 ], [ -124.156136295278117, 41.749879849390211 ], [ -124.151641066158504, 41.73413102510839 ], [ -124.167527562626105, 41.725339969051703 ], [ -124.17219021057862, 41.740611117069925 ], [ -124.173108135678319, 41.746525043474364 ], [ -124.167527562626105, 41.753138346804064 ] ] ] } },
{ "type": "Feature", "properties": { "land_use": "Agriculture", "use_code": "LU9534", "area_acres": 0.025878387496487552, "description": "Synthetic Commercial land use" }, "geometry": { "type": "Polygon", "coordinates": [ [ [ -124.255842374023189, 41.84308482249704 ], [ -124.253385070332769, 41.831977270887087 ], [ -124.253913632077882, 41.829444986258622 ], [ -124.255842374023189, 41.823451568285954 ], [ -124.258810629779163, 41.82884482268021 ], [ -124.264517222676716, 41.835566972145237 ], [ -124.255842374023189, 41.84308482249704 ] ] ] } },
{ "type": "Feature", "properties": { "land_use": "Industrial", "use_code": "LU5929", "area_acres": 0.063637835993054656, "description": "Synthetic Forest land use" }, "geometry": { "type": "Polygon", "coordinates": [ [ [ -124.057606129888043, 41.7356105554965 ], [ -124.051963462632003, 41.729313115750863 ], [ -124.045347949618659, 41.718978056613338 ], [ -124.057606129888043, 41.706998443875449 ], [ -124.062233423629294, 41.723383751004512 ], [ -124.061599617654025, 41.728360961528338 ], [ -124.057606129888043, 41.7356105554965 ] ] ] } },
{ "type": "Feature", "properties": { "land_use": "Agriculture", "use_code": "LU2542", "area_acres": 0.13927252789290367, "description": "Synthetic Commercial land use" }, "geometry": { "type": "Polygon", "coordinates": [ [ [ -124.399371173696721, 41.860620259185339 ], [ -124.38563712743462, 41.856995236857415 ], [ -124.382345277808582, 41.83923597597672 ], [ -124.399371173696721, 41.835255049642619 ], [ -124.407632159916702, 41.844296398933054 ], [ -124.415931071252345, 41.85862674286242 ], [ -124.399371173696721, 41.860620259185339 ] ] ] } },
{ "type": "Feature", "properties": { "land_use": "Residential", "use_code": "LU1541", "area_acres": 0.058306635311845517, "description": "Synthetic Commercial land use" }, "geometry": { "type": "Polygon", "coordinates": [ [ [ -124.346094537578395, 41.612157949290733 ], [ -124.344005455844851, 41.601006026107193 ], [ -124.332981724298634, 41.592229207929066 ], [ -124.346094537578395, 41.591931555730859 ], [ -124.351205857590315, 41.59684887222118 ], [ -124.360939785118205, 41.608370801869263 ], [ -124.346094537578395, 41.612157949290733 ] ] ] } },
{ "type": "Feature", "properties": { "land_use": "Agriculture", "use_code": "LU9221", "area_acres": 0.076604851682295694, "description": "Synthetic Open Space land use" }, "geometry": { "type": "Polygon", "coordinates": [ [ [ -124.068238422681787, 41.72377305692082 ], [ -124.057597078256265, 41.714184194916996 ], [ -124.060294009977412, 41.70345370303496 ], [ -124.068238422681787, 41.70603150831333 ], [ -124.074193442358421, 41.704602279635047 ], [ -124.082704490533715, 41.716392400016808 ], [ -124.068238422681787, 41.72377305692082 ] ] ] } },
{ "type": "Feature", "properties": { "land_use": "Industrial", "use_code": "LU5894", "area_acres": 0.078428438641859666, "description": "Synthetic Commercial land use" }, "geometry": { "type": "Polygon", "coordinates": [ [ [ -124.365991963232318, 41.78106066192872 ], [ -124.359897078876045, 41.766788058687048 ], [ -124.348779541339766, 41.753331579150206 ], [ -124.365991963232318, 41.760485499887082 ], [ -124.375761452023312, 41.757628758579948 ], [ -124.377346244389528, 41.769824572845842 ], [ -124.365991963232318, 41.78106066192872 ] ] ] } },
{ "type": "Feature", "properties": { "land_use": "Residential", "use_code": "LU2179", "area_acres": 0.084330107700145401, "description": "Synthetic Industrial land use" }, "geometry": { "type": "Polygon", "coordinates": [ [ [ -124.031000697904844, 41.78835420552079 ], [ -124.022328324242409, 41.778621282393949 ], [ -124.021633437093925, 41.768206094574673 ], [ -124.031000697904844, 41.760411075359166 ], [ -124.048078475888346, 41.763754425409488 ], [ -124.034243666770436, 41.775486614072946 ], [ -124.031000697904844, 41.78835420552079 ] ] ] } },
{ "type": "Feature", "properties": { "land_use": "Open Space", "use_code": "LU5232", "area_acres": 0.054025023410571318, "description": "Synthetic Residential land use" }, "geometry": { "type": "Polygon", "coordinates": [ [ [ -124.073526053503869, 41.886842469989858 ], [ -124.062515625788507, 41.890199052613752 ], [ -124.070320758433056, 41.881991601236429 ], [ -124.073526053503869, 41.870850596386703 ], [ -124.083291732909998, 41.878203961574457 ], [ -124.087182154791648, 41.891726532962984 ], [ -124.073526053503869, 41.886842469989858 ] ] ] } },
{ "type": "Feature", "properties": { "land_use": "Commercial", "use_code": "LU6011", "area_acres": 0.085303790249282876, "description": "Synthetic Commercial land use" }, "geometry": { "type": "Polygon", "coordinates": [ [ [ -124.250048485343882, 41.931372086163023 ], [ -124.241444062864701, 41.930051908770906 ], [ -124.237456229771254, 41.917814000991775 ], [ -124.250048485343882, 41.911419313961268 ], [ -124.265967810097123, 41.91589311670473 ], [ -124.254977740591883, 41.927930049980667 ], [ -124.250048485343882, 41.931372086163023 ] ] ] } },
{ "type": "Feature", "properties": { "land_use": "Open Space", "use_code": "LU8039", "area_acres": 0.060467361512576701, "description": "Synthetic Industrial land use" }, "geometry": { "type": "Polygon", "coordinates": [ [ [ -124.268475942555753, 41.868423095234348 ], [ -124.252101712717675, 41.870111940758044 ], [ -124.262552469645215, 41.857238356073815 ], [ -124.268475942555753, 41.843262329509848 ], [ -124.270335004807748, 41.859584944661627 ], [ -124.280066706867643, 41.86735020564884 ], [ -124.268475942555753, 41.868423095234348 ] ] ] } },
{ "type": "Feature", "properties": { "land_use": "Open Space", "use_code": "LU8673", "area_acres": 0.13188110982206677, "description": "Synthetic Open Space land use" }, "geometry": { "type": "Polygon", "coordinates": [ [ [ -124.060419903322526, 41.930274268021996 ], [ -124.046285719365173, 41.927888788988923 ], [ -124.043712950973685, 41.910082650640426 ], [ -124.060419903322526, 41.903895846726009 ], [ -124.068978336462862, 41.914787200398955 ], [ -124.072445708630141, 41.92667151600795 ], [ -124.060419903322526, 41.930274268021996 ] ] ] } },
{ "type": "Feature", "properties": { "land_use": "Forest", "use_code": "LU6742", "area_acres": 0.092440686720439702, "description": "Synthetic Open Space land use" }, "geometry": { "type": "Polygon", "coordinates": [ [ [ -124.092103846016968, 41.665290058696215 ], [ -124.086829827110463, 41.652461001407872 ], [ -124.083557515443147, 41.644481818915104 ], [ -124.092103846016968, 41.634451705003599 ], [ -124.101111635982789, 41.644215395210914 ], [ -124.105414341646366, 41.657100863407166 ], [ -124.092103846016968, 41.665290058696215 ] ] ] } },
{ "type": "Feature", "properties": { "land_use": "Agriculture", "use_code": "LU5970", "area_acres": 0.10905051301562646, "description": "Synthetic Residential land use" }, "geometry": { "type": "Polygon", "coordinates": [ [ [ -124.180946901650856, 41.955786823970044 ], [ -124.169432945902301, 41.948735000255724 ], [ -124.168458628652104, 41.934877307027314 ], [ -124.180946901650856, 41.935260663704256 ], [ -124.191459057358472, 41.936018218877294 ], [ -124.196499253937958, 41.951066569584341 ], [ -124.180946901650856, 41.955786823970044 ] ] ] } },
{ "type": "Feature", "properties": { "land_use": "Agriculture", "use_code": "LU3152", "area_acres": 0.089452372967407143, "description": "Synthetic Commercial land use" }, "geometry": { "type": "Polygon", "coordinates": [ [ [ -124.233197296765724, 41.821073663938556 ], [ -124.221825481476785, 41.813340392390849 ], [ -124.225584929343498, 41.802379869392212 ], [ -124.233197296765724, 41.78749313363312 ], [ -124.245356681266074, 41.799754647858144 ], [ -124.236027565352614, 41.808408928103127 ], [ -124.233197296765724, 41.821073663938556 ] ] ] } },
{ "type": "Feature", "properties": { "land_use": "Industrial", "use_code": "LU9925", "area_acres": 0.080363306534315213, "description": "Synthetic Industrial land use" }, "geometry": { "type": "Polygon", "coordinates": [ [ [ -124.20439911026665, 41.884341686381518 ], [ -124.191824327416768, 41.877114016546841 ], [ -124.188669250450914, 41.860772323484532 ], [ -124.20439911026665, 41.864166636797599 ], [ -124.209490830945384, 41.866914255978948 ], [ -124.210361665074643, 41.873296444906913 ], [ -124.20439911026665, 41.884341686381518 ] ] ] } },
{ "type": "Feature", "properties": { "land_use": "Open Space", "use_code": "LU5555", "area_acres": 0.061967472692604636, "description": "Synthetic Open Space land use" }, "geometry": { "type": "Polygon", "coordinates": [ [ [ -124.350180494054726, 41.722377566247452 ], [ -124.345018874426387, 41.719317256936328 ], [ -124.333891407292256, 41.70693268582729 ], [ -124.350180494054726, 41.713148878700551 ], [ -124.362706009436764, 41.7091055847769 ], [ -124.363905629212809, 41.724261404932641 ], [ -124.350180494054726, 41.722377566247452 ] ] ] } },
{ "type": "Feature", "properties": { "land_use": "Commercial", "use_code": "LU8724", "area_acres": 0.10821943793791237, "description": "Synthetic Commercial land use" }, "geometry": { "type": "Polygon", "coordinates": [ [ [ -124.082727689148697, 41.77627162883136 ], [ -124.074410074641222, 41.772489334691379 ], [ -124.074918812811873, 41.763178700861339 ], [ -124.082727689148697, 41.750082028678669 ], [ -124.098150330359061, 41.758782891662051 ], [ -124.094871173026021, 41.774698201401939 ], [ -124.082727689148697, 41.77627162883136 ] ] ] } },
{ "type": "Feature", "properties": { "land_use": "Forest", "use_code": "LU9036", "area_acres": 0.074610785007409974, "description": "Synthetic Industrial land use" }, "geometry": { "type": "Polygon", "coordinates": [ [ [ -124.23388477247849, 41.663137026624753 ], [ -124.230741517723658, 41.652430176895983 ], [ -124.223959206780066, 41.644884889889305 ], [ -124.23388477247849, 41.64446254591239 ], [ -124.249373635621239, 41.641672918612244 ], [ -124.246123028609475, 41.657681178388778 ], [ -124.23388477247849, 41.663137026624753 ] ] ] } },
{ "type": "Feature", "properties": { "land_use": "Forest", "use_code": "LU9064", "area_acres": 0.11009118525651068, "description": "Synthetic Industrial land use" }, "geometry": { "type": "Polygon", "coordinates": [ [ [ -124.152750117148969, 41.92986561426595 ], [ -124.137644313523793, 41.919534062733277 ], [ -124.13797309099013, 41.902281202913329 ], [ -124.152750117148969, 41.903692472017248 ], [ -124.162080068911365, 41.905426072782411 ], [ -124.158578548707638, 41.914177769473305 ], [ -124.152750117148969, 41.92986561426595 ] ] ] } },
{ "type": "Feature", "properties": { "land_use": "Residential", "use_code": "LU3172", "area_acres": 0.099948105473427529, "description": "Synthetic Commercial land use" }, "geometry": { "type": "Polygon", "coordinates": [ [ [ -124.247324232076011, 41.696275812342854 ], [ -124.239366952102628, 41.695815780694403 ], [ -124.237498979799128, 41.685549030912838 ], [ -124.247324232076011, 41.67916682394673 ], [ -124.264398740163472, 41.681363671119179 ], [ -124.261623165835587, 41.699477136214966 ], [ -124.247324232076011, 41.696275812342854 ] ] ] } },
{ "type": "Feature", "properties": { "land_use": "Forest", "use_code": "LU4485", "area_acres": 0.024147030698140733, "description": "Synthetic Open Space land use" }, "geometry": { "type": "Polygon", "coordinates": [ [ [ -124.160245319799515, 41.623830728755514 ], [ -124.158327603678842, 41.620428060068242 ], [ -124.15478656145001, 41.616169250547216 ], [ -124.160245319799515, 41.614207072138626 ], [ -124.174534947333555, 41.611070745846341 ], [ -124.163753813390045, 41.621346495868686 ], [ -124.160245319799515, 41.623830728755514 ] ] ] } },
{ "type": "Feature", "properties": { "land_use": "Residential", "use_code": "LU4756", "area_acres": 0.049330496385009331, "description": "Synthetic Forest land use" }, "geometry": { "type": "Polygon", "coordinates": [ [ [ -124.216439694014738, 41.766867822129115 ], [ -124.209143765928346, 41.752692698291625 ], [ -124.205947812085412, 41.742422901390761 ], [ -124.216439694014738, 41.746434590036323 ], [ -124.219754240134179, 41.746566738152666 ], [ -124.223123494005833, 41.752339285971033 ], [ -124.216439694014738, 41.766867822129115 ] ] ] } },
{ "type": "Feature", "properties": { "land_use": "Forest", "use_code": "LU1121", "area_acres": 0.059031712673605283, "description": "Synthetic Commercial land use" }, "geometry": { "type": "Polygon", "coordinates": [ [ [ -124.171249316741296, 41.624096895048552 ], [ -124.162624321823301, 41.621543084906307 ], [ -124.160972393292894, 41.610630057249267 ], [ -124.171249316741296, 41.607485169619558 ], [ -124.175018786835921, 41.614387137194811 ], [ -124.186640676799172, 41.625449647641247 ], [ -124.171249316741296, 41.624096895048552 ] ] ] } },
{ "type": "Feature", "properties": { "land_use": "Commercial", "use_code": "LU5788", "area_acres": 0.1123729664224445, "description": "Synthetic Industrial land use" }, "geometry": { "type": "Polygon", "coordinates": [ [ [ -124.072611818259958, 41.86079662700535 ], [ -124.064982542550425, 41.861196954007745 ], [ -124.056153366222219, 41.847289897908695 ], [ -124.072611818259958, 41.842832603802414 ], [ -124.088670149649161, 41.847520907672831 ], [ -124.085032668813497, 41.863963371033776 ], [ -124.072611818259958, 41.86079662700535 ] ] ] } },
{ "type": "Feature", "properties": { "land_use": "Industrial", "use_code": "LU4087", "area_acres": 0.0803854191004892, "description": "Synthetic Forest land use" }, "geometry": { "type": "Polygon", "coordinates": [ [ [ -124.337492124671869, 41.794589345606546 ], [ -124.325685682876497, 41.788317043303515 ], [ -124.323532931905717, 41.773441247253579 ], [ -124.337492124671869, 41.771945856589348 ], [ -124.348790951340959, 41.774977210335862 ], [ -124.339958036301908, 41.782924285698186 ], [ -124.337492124671869, 41.794589345606546 ] ] ] } },
{ "type": "Feature", "properties": { "land_use": "Agriculture", "use_code": "LU7962", "area_acres": 0.077736979813393794, "description": "Synthetic Industrial land use" }, "geometry": { "type": "Polygon", "coordinates": [ [ [ -124.354931133610222, 41.958674484427426 ], [ -124.339763550590675, 41.959713159348425 ], [ -124.347093559539431, 41.946431125709566 ], [ -124.354931133610222, 41.937047231720634 ], [ -124.362210962102736, 41.946753140269323 ], [ -124.365138001883551, 41.956849089354321 ], [ -124.354931133610222, 41.958674484427426 ] ] ] } },
{ "type": "Feature", "properties": { "land_use": "Residential", "use_code": "LU2104", "area_acres": 0.036360366475938238, "description": "Synthetic Industrial land use" }, "geometry": { "type": "Polygon", "coordinates": [ [ [ -124.223427817771082, 41.785438725979226 ], [ -124.215732875304113, 41.774948904806152 ], [ -124.216243993914048, 41.766358645063782 ], [ -124.223427817771082, 41.768077553161781 ], [ -124.229985121696274, 41.766720366515081 ], [ -124.227079690852989, 41.772614637608342 ], [ -124.223427817771082, 41.785438725979226 ] ] ] } },
{ "type": "Feature", "properties": { "land_use": "Forest", "use_code": "LU6459", "area_acres": 0.070319798068619488, "description": "Synthetic Agriculture land use" }, "geometry": { "type": "Polygon", "coordinates": [ [ [ -124.121235065212772, 41.646990267106951 ], [ -124.108972950796684, 41.639736117775286 ], [ -124.107970161839148, 41.624998087182789 ], [ -124.121235065212772, 41.624153325312889 ], [ -124.125208073695461, 41.630362765199351 ], [ -124.124352752387722, 41.634456580246024 ], [ -124.121235065212772, 41.646990267106951 ] ] ] } },
{ "type": "Feature", "properties": { "land_use": "Forest", "use_code": "LU5187", "area_acres": 0.10900208571474032, "description": "Synthetic Forest land use" }, "geometry": { "type": "Polygon", "coordinates": [ [ [ -124.324466699982665, 41.721396479478422 ], [ -124.311973626334648, 41.711253076476375 ], [ -124.311366493913155, 41.696476789542011 ], [ -124.324466699982665, 41.690651521727581 ], [ -124.336921096180376, 41.696849648045344 ], [ -124.328697576640394, 41.706482894819935 ], [ -124.324466699982665, 41.721396479478422 ] ] ] } },
{ "type": "Feature", "properties": { "land_use": "Industrial", "use_code": "LU8321", "area_acres": 0.064380485026299172, "description": "Synthetic Agriculture land use" }, "geometry": { "type": "Polygon", "coordinates": [ [ [ -124.369880179935947, 41.668863920915761 ], [ -124.367009649471058, 41.668059232266998 ], [ -124.357960240247436, 41.659519950342499 ], [ -124.369880179935947, 41.650788618214683 ], [ -124.377405551087833, 41.662057155670084 ], [ -124.385204983206307, 41.675249710023799 ], [ -124.369880179935947, 41.668863920915761 ] ] ] } },
{ "type": "Feature", "properties": { "land_use": "Residential", "use_code": "LU5746", "area_acres": 0.051555332303553872, "description": "Synthetic Agriculture land use" }, "geometry": { "type": "Polygon", "coordinates": [ [ [ -124.307990601557975, 41.914633767744675 ], [ -124.305908773493186, 41.90246810737473 ], [ -124.304286162491067, 41.899127404488638 ], [ -124.307990601557975, 41.894262224483676 ], [ -124.321878313941482, 41.893248088898069 ], [ -124.316742077338446, 41.906318830278778 ], [ -124.307990601557975, 41.914633767744675 ] ] ] } },
{ "type": "Feature", "properties": { "land_use": "Residential", "use_code": "LU7963", "area_acres": 0.064559681492403403, "description": "Synthetic Open Space land use" }, "geometry": { "type": "Polygon", "coordinates": [ [ [ -124.044768035123099, 41.608584653952271 ], [ -124.039540394388553, 41.593396921410061 ], [ -124.035256997376408, 41.584887541421423 ], [ -124.044768035123099, 41.585709099790598 ], [ -124.055921229101955, 41.58393944207873 ], [ -124.053564948568251, 41.595457641970341 ], [ -124.044768035123099, 41.608584653952271 ] ] ] } },
{ "type": "Feature", "properties": { "land_use": "Agriculture", "use_code": "LU1200", "area_acres": 0.055426855493816297, "description": "Synthetic Commercial land use" }, "geometry": { "type": "Polygon", "coordinates": [ [ [ -124.236019893008688, 41.612101813841008 ], [ -124.23015073978749, 41.598694697079793 ], [ -124.226840191071943, 41.590006236503363 ], [ -124.236019893008688, 41.58294348608289 ], [ -124.243444633625444, 41.591019463893872 ], [ -124.239273722941022, 41.597184739474947 ], [ -124.236019893008688, 41.612101813841008 ] ] ] } },
{ "type": "Feature", "properties": { "land_use": "Agriculture", "use_code": "LU1439", "area_acres": 0.072573541338477793, "description": "Synthetic Forest land use" }, "geometry": { "type": "Polygon", "coordinates": [ [ [ -124.097655295144136, 41.655537970294922 ], [ -124.085165578444318, 41.657327277569529 ], [ -124.091291198729053, 41.646442023492391 ], [ -124.097655295144136, 41.642437873299642 ], [ -124.113208651718466, 41.641136601665792 ], [ -124.108758322762384, 41.656526672254998 ], [ -124.097655295144136, 41.655537970294922 ] ] ] } },
{ "type": "Feature", "properties": { "land_use": "Open Space", "use_code": "LU3191", "area_acres": 0.10120066310002755, "description": "Synthetic Forest land use" }, "geometry": { "type": "Polygon", "coordinates": [ [ [ -124.253121773081219, 41.645887588737672 ], [ -124.250178429796335, 41.642777937752427 ], [ -124.236130491470604, 41.631268676702824 ], [ -124.253121773081219, 41.622150860180618 ], [ -124.262313029736617, 41.635772023210407 ], [ -124.269436740835971, 41.650498048739621 ], [ -124.253121773081219, 41.645887588737672 ] ] ] } },
{ "type": "Feature", "properties": { "land_use": "Agriculture", "use_code": "LU8282", "area_acres": 0.10488961189732511, "description": "Synthetic Commercial land use" }, "geometry": { "type": "Polygon", "coordinates": [ [ [ -124.362763511622873, 41.83925897819865 ], [ -124.348200333700959, 41.832496132728402 ], [ -124.349356813264052, 41.816347717128515 ], [ -124.362763511622873, 41.817193354720914 ], [ -124.36981591032611, 41.820016373745183 ], [ -124.37397992273759, 41.830563876011347 ], [ -124.362763511622873, 41.83925897819865 ] ] ] } },
{ "type": "Feature", "properties": { "land_use": "Agriculture", "use_code": "LU7241", "area_acres": 0.16017716197746015, "description": "Synthetic Industrial land use" }, "geometry": { "type": "Polygon", "coordinates": [ [ [ -124.088495275331113, 41.937182103035411 ], [ -124.0722783955556, 41.930039281769993 ], [ -124.077668744763045, 41.914425761528314 ], [ -124.088495275331113, 41.903885710211888 ], [ -124.100305096725052, 41.913858058305308 ], [ -124.103289855917069, 41.929218116950025 ], [ -124.088495275331113, 41.937182103035411 ] ] ] } },
{ "type": "Feature", "properties": { "land_use": "Agriculture", "use_code": "LU1742", "area_acres": 0.10888042709456193, "description": "Synthetic Commercial land use" }, "geometry": { "type": "Polygon", "coordinates": [ [ [ -124.016434504718859, 41.596592234116898 ], [ -123.999979268843077, 41.590584173528647 ], [ -124.004914127205936, 41.574432445607926 ], [ -124.016434504718859, 41.573991316532179 ], [ -124.033198592120002, 41.571404988292414 ], [ -124.022358608035418, 41.584504021310707 ], [ -124.016434504718859, 41.596592234116898 ] ] ] } },
{ "type": "Feature", "properties": { "land_use": "Residential", "use_code": "LU4766", "area_acres": 0.061512579915421875, "description": "Synthetic Open Space land use" }, "geometry": { "type": "Polygon", "coordinates": [ [ [ -124.313556717927057, 41.720911680333472 ], [ -124.303976585360303, 41.717195890440436 ], [ -124.306246082391709, 41.707444000929868 ], [ -124.313556717927057, 41.699134292569184 ], [ -124.322294825691543, 41.706619849454121 ], [ -124.320140497930709, 41.71546594548154 ], [ -124.313556717927057, 41.720911680333472 ] ] ] } },
{ "type": "Feature", "properties": { "land_use": "Agriculture", "use_code": "LU3583", "area_acres": 0.070672066269453257, "description": "Synthetic Residential land use" }, "geometry": { "type": "Polygon", "coordinates": [ [ [ -124.074552797138523, 41.618747348895575 ], [ -124.060805917117591, 41.624493566809107 ], [ -124.069289907269862, 41.613518271046118 ], [ -124.074552797138523, 41.59888798903475 ], [ -124.091226322561283, 41.606930337537335 ], [ -124.077852451156431, 41.618461858063981 ], [ -124.074552797138523, 41.618747348895575 ] ] ] } },
{ "type": "Feature", "properties": { "land_use": "Industrial", "use_code": "LU3236", "area_acres": 0.15019936336943668, "description": "Synthetic Industrial land use" }, "geometry": { "type": "Polygon", "coordinates": [ [ [ -124.045805559605867, 41.728114865604468 ], [ -124.034876157765154, 41.717018598063348 ], [ -124.033364095933877, 41.703525422568397 ], [ -124.045805559605867, 41.694867553849939 ], [ -124.061200811068474, 41.701820052392364 ], [ -124.05795501878643, 41.717722998496939 ], [ -124.045805559605867, 41.728114865604468 ] ] ] } },
{ "type": "Feature", "properties": { "land_use": "Residential", "use_code": "LU9223", "area_acres": 0.064192502654653968, "description": "Synthetic Agriculture land use" }, "geometry": { "type": "Polygon", "coordinates": [ [ [ -124.018951275637264, 41.7980555563366 ], [ -124.016974643543804, 41.797077260952044 ], [ -124.012265024030228, 41.792075742715603 ], [ -124.018951275637264, 41.775964214516591 ], [ -124.028592603028002, 41.790369628916409 ], [ -124.032082110960062, 41.803517143189097 ], [ -124.018951275637264, 41.7980555563366 ] ] ] } },
{ "type": "Feature", "properties": { "land_use": "Commercial", "use_code": "LU7304", "area_acres": 0.078847558822722916, "description": "Synthetic Forest land use" }, "geometry": { "type": "Polygon", "coordinates": [ [ [ -124.129109656963806, 41.956382675862187 ], [ -124.115205540269869, 41.959192440045307 ], [ -124.121017066801699, 41.946492635420682 ], [ -124.129109656963806, 41.935688722299687 ], [ -124.138252465085074, 41.945886291799255 ], [ -124.139820067213904, 41.957348552770249 ], [ -124.129109656963806, 41.956382675862187 ] ] ] } },
{ "type": "Feature", "properties": { "land_use": "Forest", "use_code": "LU5276", "area_acres": 0.058644138180370904, "description": "Synthetic Open Space land use" }, "geometry": { "type": "Polygon", "coordinates": [ [ [ -124.384943910339288, 41.883253136150493 ], [ -124.379780725935689, 41.867948437985547 ], [ -124.373810719183751, 41.858539721169663 ], [ -124.384943910339288, 41.861126339925356 ], [ -124.386962504402035, 41.863802036254739 ], [ -124.397717357033883, 41.872342224967859 ], [ -124.384943910339288, 41.883253136150493 ] ] ] } },
{ "type": "Feature", "properties": { "land_use": "Residential", "use_code": "LU1426", "area_acres": 0.045112316028203661, "description": "Synthetic Residential land use" }, "geometry": { "type": "Polygon", "coordinates": [ [ [ -124.104465921326394, 41.800393406620714 ], [ -124.092726205917188, 41.803174674932812 ], [ -124.093701012924257, 41.79018162431732 ], [ -124.104465921326394, 41.784109554672277 ], [ -124.106305723816732, 41.795334536618043 ], [ -124.107309046313773, 41.798038226057905 ], [ -124.104465921326394, 41.800393406620714 ] ] ] } },
{ "type": "Feature", "properties": { "land_use": "Agriculture", "use_code": "LU3863", "area_acres": 0.063731162429700491, "description": "Synthetic Open Space land use" }, "geometry": { "type": "Polygon", "coordinates": [ [ [ -124.049220805162804, 41.602117064882165 ], [ -124.043762023392716, 41.585940662269657 ], [ -124.046847746752263, 41.581418947233118 ], [ -124.049220805162804, 41.574780645278217 ], [ -124.053754929754163, 41.580171255091884 ], [ -124.06306412555179, 41.590781477898304 ], [ -124.049220805162804, 41.602117064882165 ] ] ] } },
{ "type": "Feature", "properties": { "land_use": "Commercial", "use_code": "LU9471", "area_acres": 0.090339447756002986, "description": "Synthetic Agriculture land use" }, "geometry": { "type": "Polygon", "coordinates": [ [ [ -124.394000874791175, 41.629403093465442 ], [ -124.379988201567542, 41.623588812756395 ], [ -124.38838338755717, 41.612255334331941 ], [ -124.394000874791175, 41.600403980203538 ], [ -124.400793510162643, 41.611576862238437 ], [ -124.405869759216557, 41.622351095716631 ], [ -124.394000874791175, 41.629403093465442 ] ] ] } },
{ "type": "Feature", "properties": { "land_use": "Open Space", "use_code": "LU1936", "area_acres": 0.020110797699460801, "description": "Synthetic Residential land use" }, "geometry": { "type": "Polygon", "coordinates": [ [ [ -124.071281733266119, 41.874115516856172 ], [ -124.06922906165785, 41.857250704828623 ], [ -124.05655405755256, 41.847562566785271 ], [ -124.071281733266119, 41.854031987085747 ], [ -124.075080309993325, 41.853872485027047 ], [ -124.07365013261159, 41.857432990322685 ], [ -124.071281733266119, 41.874115516856172 ] ] ] } },
{ "type": "Feature", "properties": { "land_use": "Commercial", "use_code": "LU6834", "area_acres": 0.12718020172195502, "description": "Synthetic Forest land use" }, "geometry": { "type": "Polygon", "coordinates": [ [ [ -124.399978232866843, 41.772341102812248 ], [ -124.385125602841043, 41.76165805641898 ], [ -124.38437004276588, 41.744071493719055 ], [ -124.399978232866843, 41.745308996231159 ], [ -124.40283198192526, 41.75143527368833 ], [ -124.414704127321357, 41.76158488560278 ], [ -124.399978232866843, 41.772341102812248 ] ] ] } },
{ "type": "Feature", "properties": { "land_use": "Forest", "use_code": "LU4995", "area_acres": 0.088947967803547981, "description": "Synthetic Agriculture land use" }, "geometry": { "type": "Polygon", "coordinates": [ [ [ -124.183651292108451, 41.634122848941715 ], [ -124.175737593486346, 41.635523675656607 ], [ -124.170702466002496, 41.62347869138889 ], [ -124.183651292108451, 41.619288438384245 ], [ -124.197246432458954, 41.623105541685817 ], [ -124.197795650363702, 41.639120948673032 ], [ -124.183651292108451, 41.634122848941715 ] ] ] } },
{ "type": "Feature", "properties": { "land_use": "Commercial", "use_code": "LU7872", "area_acres": 0.03975311330319195, "description": "Synthetic Commercial land use" }, "geometry": { "type": "Polygon", "coordinates": [ [ [ -124.22138479047743, 41.585335866959483 ], [ -124.219279305249827, 41.579591573195422 ], [ -124.207070476713866, 41.570111597827832 ], [ -124.22138479047743, 41.574974886904961 ], [ -124.2289935148182, 41.573983071686158 ], [ -124.233942744244231, 41.585626308720222 ], [ -124.22138479047743, 41.585335866959483 ] ] ] } },
{ "type": "Feature", "properties": { "land_use": "Commercial", "use_code": "LU9918", "area_acres": 0.074081951520060169, "description": "Synthetic Commercial land use" }, "geometry": { "type": "Polygon", "coordinates": [ [ [ -124.260875540957073, 41.579793116081973 ], [ -124.258595064343851, 41.573816695076424 ], [ -124.255508112351038, 41.569401174939351 ], [ -124.260875540957073, 41.559972452434351 ], [ -124.274157029605107, 41.564831990243718 ], [ -124.275688577071193, 41.581052371677906 ], [ -124.260875540957073, 41.579793116081973 ] ] ] } },
{ "type": "Feature", "properties": { "land_use": "Agriculture", "use_code": "LU8589", "area_acres": 0.084388420794099334, "description": "Synthetic Commercial land use" }, "geometry": { "type": "Polygon", "coordinates": [ [ [ -124.053504162850686, 41.625020064548671 ], [ -124.051114101805823, 41.606873212349967 ], [ -124.044245805850764, 41.600147995056176 ], [ -124.053504162850686, 41.593037936379694 ], [ -124.06823812976161, 41.59698665020008 ], [ -124.062041692031258, 41.610422454732948 ], [ -124.053504162850686, 41.625020064548671 ] ] ] } },
{ "type": "Feature", "properties": { "land_use": "Industrial", "use_code": "LU5571", "area_acres": 0.069126557267533278, "description": "Synthetic Forest land use" }, "geometry": { "type": "Polygon", "coordinates": [ [ [ -124.101162610030741, 41.796202872217911 ], [ -124.094879267356063, 41.792900618350757 ], [ -124.097801949473833, 41.787332650488935 ], [ -124.101162610030741, 41.773431719117994 ], [ -124.117968779808493, 41.779569882120896 ], [ -124.107697317837207, 41.793045744077261 ], [ -124.101162610030741, 41.796202872217911 ] ] ] } },
{ "type": "Feature", "properties": { "land_use": "Agriculture", "use_code": "LU3986", "area_acres": 0.093503682221541234, "description": "Synthetic Forest land use" }, "geometry": { "type": "Polygon", "coordinates": [ [ [ -124.323408022850828, 41.721381426865463 ], [ -124.310234012477622, 41.717907305698823 ], [ -124.315023562573685, 41.705460516865536 ], [ -124.323408022850828, 41.691389140099936 ], [ -124.330767587966506, 41.706052240362894 ], [ -124.332884118073579, 41.71577231339127 ], [ -124.323408022850828, 41.721381426865463 ] ] ] } },
{ "type": "Feature", "properties": { "land_use": "Residential", "use_code": "LU1137", "area_acres": 0.058033401882074745, "description": "Synthetic Commercial land use" }, "geometry": { "type": "Polygon", "coordinates": [ [ [ -124.145201058875415, 41.7955717273773 ], [ -124.138012375955114, 41.795629954933204 ], [ -124.139029074827064, 41.787916170262307 ], [ -124.145201058875415, 41.788149514535711 ], [ -124.160036078277173, 41.782914564469017 ], [ -124.160237342256778, 41.800160769171903 ], [ -124.145201058875415, 41.7955717273773 ] ] ] } },
{ "type": "Feature", "properties": { "land_use": "Industrial", "use_code": "LU5290", "area_acres": 0.056470542103950347, "description": "Synthetic Agriculture land use" }, "geometry": { "type": "Polygon", "coordinates": [ [ [ -124.245413891168297, 41.739242216112238 ], [ -124.23576012403089, 41.740574590513965 ], [ -124.237927313991065, 41.730678608109898 ], [ -124.245413891168297, 41.731244614481113 ], [ -124.255564792728109, 41.729140359710406 ], [ -124.262103390952888, 41.744636672651758 ], [ -124.245413891168297, 41.739242216112238 ] ] ] } },
{ "type": "Feature", "properties": { "land_use": "Residential", "use_code": "LU6381", "area_acres": 0.081400837016068817, "description": "Synthetic Residential land use" }, "geometry": { "type": "Polygon", "coordinates": [ [ [ -124.250381245002174, 41.633207127623976 ], [ -124.244042226448585, 41.623009897113555 ], [ -124.247106523278859, 41.617459401576767 ], [ -124.250381245002174, 41.601640748487931 ], [ -124.25969108601214, 41.613975023832026 ], [ -124.263554735781355, 41.626955781492775 ], [ -124.250381245002174, 41.633207127623976 ] ] ] } },
{ "type": "Feature", "properties": { "land_use": "Forest", "use_code": "LU6888", "area_acres": 0.051543693474390376, "description": "Synthetic Agriculture land use" }, "geometry": { "type": "Polygon", "coordinates": [ [ [ -124.376734351341597, 41.705611143430303 ], [ -124.373572639146261, 41.699302257317022 ], [ -124.36730310586421, 41.692031709814785 ], [ -124.376734351341597, 41.689105912529257 ], [ -124.391796077961985, 41.688780950011207 ], [ -124.382689097407223, 41.700914816173892 ], [ -124.376734351341597, 41.705611143430303 ] ] ] } },
{ "type": "Feature", "properties": { "land_use": "Open Space", "use_code": "LU6474", "area_acres": 0.094122036900563019, "description": "Synthetic Agriculture land use" }, "geometry": { "type": "Polygon", "coordinates": [ [ [ -124.042219049555285, 41.62837170893976 ], [ -124.039347689629722, 41.618936710874046 ], [ -124.031153254926295, 41.610890090940238 ], [ -124.042219049555285, 41.604015366445516 ], [ -124.056306271662848, 41.609145668972147 ], [ -124.055364070577426, 41.624868211873718 ], [ -124.042219049555285, 41.62837170893976 ] ] ] } },
{ "type": "Feature", "properties": { "land_use": "Agriculture", "use_code": "LU6087", "area_acres": 0.041246212000060394, "description": "Synthetic Commercial land use" }, "geometry": { "type": "Polygon", "coordinates": [ [ [ -124.040348482566557, 41.574331324632603 ], [ -124.034284963057232, 41.56292358144691 ], [ -124.038513393714609, 41.558363317783304 ], [ -124.040348482566557, 41.546833188819456 ], [ -124.047221331592823, 41.555454765590554 ], [ -124.045643359461067, 41.562479805426335 ], [ -124.040348482566557, 41.574331324632603 ] ] ] } },
{ "type": "Feature", "properties": { "land_use": "Forest", "use_code": "LU9127", "area_acres": 0.11772419521205503, "description": "Synthetic Commercial land use" }, "geometry": { "type": "Polygon", "coordinates": [ [ [ -124.359829627078014, 41.765860916220177 ], [ -124.3450883240385, 41.755365523174731 ], [ -124.351996445412794, 41.742332138353639 ], [ -124.359829627078014, 41.736391971284071 ], [ -124.375302796769802, 41.737921189209885 ], [ -124.367842736655092, 41.751480998868033 ], [ -124.359829627078014, 41.765860916220177 ] ] ] } },
{ "type": "Feature", "properties": { "land_use": "Residential", "use_code": "LU7270", "area_acres": 0.099920905944765673, "description": "Synthetic Forest land use" }, "geometry": { "type": "Polygon", "coordinates": [ [ [ -124.396242856513098, 41.929073235532208 ], [ -124.387456705973491, 41.920486699197042 ], [ -124.382990994627164, 41.907763046790748 ], [ -124.396242856513098, 41.904759202109368 ], [ -124.412641884140911, 41.905946029802493 ], [ -124.403555306505126, 41.919635857789196 ], [ -124.396242856513098, 41.929073235532208 ] ] ] } },
{ "type": "Feature", "properties": { "land_use": "Residential", "use_code": "LU1983", "area_acres": 0.056556509457969049, "description": "Synthetic Commercial land use" }, "geometry": { "type": "Polygon", "coordinates": [ [ [ -124.128990495169091, 41.694545584978108 ], [ -124.127118441596423, 41.689413863343887 ], [ -124.113158991460111, 41.679192709781709 ], [ -124.128990495169091, 41.676301723914577 ], [ -124.135926221164468, 41.684328689439312 ], [ -124.138692934282957, 41.693934738543959 ], [ -124.128990495169091, 41.694545584978108 ] ] ] } }
]
}
