{
  "type": "FeatureCollection",
  "name": "ca_humboldt_boundary",
  "crs": { "type": "name", "properties": { "name": "urn:ogc:def:crs:OGC:1.3:CRS84" } },
  "features": [{
    "type": "Feature",
    "properties": {
      "name": "Humboldt County",
      "state": "CA",
      "fips_code": "06023",
      "full_name": "Humboldt County, California",
      "area_sq_mi": 3573,
      "population_2020": 135558,
      "county_seat": "Eureka",
      "data_source": "US Census TIGER/Line 2022",
      "major_rivers": ["Eel River", "Mad River", "Trinity River", "Van Duzen River"],
      "notes": "Coastal county following Eel River drainage"
    },
    "geometry": {
      "type": "Polygon",
      "coordinates": [[
        [-124.409, 39.996], [-124.409, 41.455], [-124.000, 41.455],
        [-123.700, 41.380], [-123.550, 41.100], [-123.406, 40.800],
        [-123.500, 40.600], [-123.600, 40.200], [-123.800, 39.996],
        [-124.409, 39.996]
      ]]
    }
  }]
}
