{
  "type": "FeatureCollection",
  "features": [
    {
      "type": "Feature",
      "geometry": {
        "type": "Polygon",
        "coordinates": [
          [
            [
              -124.44342828426248,
              41.91367899882117
            ],
            [
              -124.43999219103604,
              41.91367899882117
            ],
            [
              -124.43999219103604,
              41.91711509204761
            ],
            [
              -124.44342828426248,
              41.91711509204761
            ],
            [
              -124.44342828426248,
              41.91367899882117
            ]
          ]
        ]
      },
      "properties": {
        "fire_id": "FIRE_0001",
        "fire_name": "Del Norte Fire 1",
        "acres_burned": 36367.70059939575,
        "fire_year": 2015,
        "county": "Del Norte",
        "incident_id": "INC_000001",
        "alarm_date": "2025-11-16",
        "h3_cell": "88281ddaa3fffff"
      }
    },
    {
      "type": "Feature",
      "geometry": {
        "type": "Polygon",
        "coordinates": [
          [
            [
              -124.48411433239431,
              41.70262461291995
            ],
            [
              -124.4810203388243,
              41.70262461291995
            ],
            [
              -124.4810203388243,
              41.70571860648998
            ],
            [
              -124.48411433239431,
              41.70571860648998
            ],
            [
              -124.48411433239431,
              41.70262461291995
            ]
          ]
        ]
      },
      "properties": {
        "fire_id": "FIRE_0002",
        "fire_name": "Del Norte Fire 2",
        "acres_burned": 29486.605530076227,
        "fire_year": 2015,
        "county": "Del Norte",
        "incident_id": "INC_000002",
        "alarm_date": "2025-05-20",
        "h3_cell": "8828036915fffff"
      }
    },
    {
      "type": "Feature",
      "geometry": {
        "type": "Polygon",
        "coordinates": [
          [
            [
              -124.4444169489584,
              41.957509778874766
            ],
            [
              -124.4407641013751,
              41.957509778874766
            ],
            [
              -124.4407641013751,
              41.961162626458076
            ],
            [
              -124.4444169489584,
              41.961162626458076
            ],
            [
              -124.4444169489584,
              41.957509778874766
            ]
          ]
        ]
      },
      "properties": {
        "fire_id": "FIRE_0003",
        "fire_name": "Del Norte Fire 3",
        "acres_burned": 41100.68586186699,
        "fire_year": 2015,
        "county": "Del Norte",
        "incident_id": "INC_000003",
        "alarm_date": "2025-02-13",
        "h3_cell": "88281dd883fffff"
      }
    },
    {
      "type": "Feature",
      "geometry": {
        "type": "Polygon",
        "coordinates": [
          [
            [
              -124.31837191400778,
              41.77450330587589
            ],
            [
              -124.31435644777507,
              41.77450330587589
            ],
            [
              -124.31435644777507,
              41.778518772108605
            ],
            [
              -124.31837191400778,
              41.778518772108605
            ],
            [
              -124.31837191400778,
              41.77450330587589
            ]
          ]
        ]
      },
      "properties": {
        "fire_id": "FIRE_0004",
        "fire_name": "Del Norte Fire 4",
        "acres_burned": 49665.85571584208,
        "fire_year": 2015,
        "county": "Del Norte",
        "incident_id": "INC_000004",
        "alarm_date": "2025-11-24",
        "h3_cell": "88281ca557fffff"
      }
    }
  ]
}